{
"type": "FeatureCollection",
"name": "hotosm_blr_railways_points_geojson",
"features": [
{ "type": "Feature", "properties": { "name": "Бабруйск", "name:en": "Babruysk", "railway": "station", "ele": null, "operator:type": null, "layer": null, "addr:full": null, "addr:city": null, "source": null, "name:be": "Бабруйск", "name:ru": "Бобруйск", "osm_id": 11027468523, "osm_type": "nodes" }, "geometry": { "type": "Point", "coordinates": [ 29.1951469, 53.137659 ] } },
{ "type": "Feature", "properties": { "name": "Цэнтраліт", "name:en": null, "railway": "station", "ele": null, "operator:type": null, "layer": null, "addr:full": null, "addr:city": null, "source": null, "name:be": "Цэнтраліт", "name:ru": "Центролит", "osm_id": 306068337, "osm_type": "nodes" }, "geometry": { "type": "Point", "coordinates": [ 30.9036698, 52.4302009 ] } },
{ "type": "Feature", "properties": { "name": "Свіслач", "name:en": null, "railway": "station", "ele": null, "operator:type": null, "layer": null, "addr:full": null, "addr:city": null, "source": null, "name:be": "Свіслач", "name:ru": "Свислочь", "osm_id": 306067750, "osm_type": "nodes" }, "geometry": { "type": "Point", "coordinates": [ 24.0762058, 53.0159519 ] } },
{ "type": "Feature", "properties": { "name": "Брэст-Паўднёвы", "name:en": null, "railway": "station", "ele": null, "operator:type": null, "layer": null, "addr:full": null, "addr:city": null, "source": null, "name:be": "Брэст-Паўднёвы", "name:ru": "Брест-Южный", "osm_id": 11323332227, "osm_type": "nodes" }, "geometry": { "type": "Point", "coordinates": [ 23.7501638, 52.064378 ] } },
{ "type": "Feature", "properties": { "name": "Закруцін", "name:en": null, "railway": "station", "ele": null, "operator:type": null, "layer": null, "addr:full": null, "addr:city": null, "source": null, "name:be": "Закруцін", "name:ru": "Закрутин", "osm_id": 11323332228, "osm_type": "nodes" }, "geometry": { "type": "Point", "coordinates": [ 23.9171666, 51.9449227 ] } },
{ "type": "Feature", "properties": { "name": "Хаціслаў", "name:en": null, "railway": "station", "ele": null, "operator:type": null, "layer": null, "addr:full": null, "addr:city": null, "source": null, "name:be": "Хаціслаў", "name:ru": "Хотислав", "osm_id": 11323332230, "osm_type": "nodes" }, "geometry": { "type": "Point", "coordinates": [ 24.1740141, 51.7047768 ] } },
{ "type": "Feature", "properties": { "name": "Каменная", "name:en": null, "railway": "station", "ele": null, "operator:type": null, "layer": null, "addr:full": null, "addr:city": null, "source": null, "name:be": "Каменная", "name:ru": "Каменная", "osm_id": 306069611, "osm_type": "nodes" }, "geometry": { "type": "Point", "coordinates": [ 23.8216837, 52.0062321 ] } },
{ "type": "Feature", "properties": { "name": "Зябкі", "name:en": null, "railway": "station", "ele": null, "operator:type": null, "layer": null, "addr:full": null, "addr:city": null, "source": null, "name:be": "Зябкі", "name:ru": "Зябки", "osm_id": 247895719, "osm_type": "nodes" }, "geometry": { "type": "Point", "coordinates": [ 28.1747494, 55.2570705 ] } },
{ "type": "Feature", "properties": { "name": "Кандзібор", "name:en": "Kandibor", "railway": "station", "ele": null, "operator:type": null, "layer": null, "addr:full": null, "addr:city": null, "source": null, "name:be": "Кандзібор", "name:ru": "Кандибор", "osm_id": 5059023449, "osm_type": "nodes" }, "geometry": { "type": "Point", "coordinates": [ 23.6710266, 52.1396443 ] } },
{ "type": "Feature", "properties": { "name": "Лапічы", "name:en": null, "railway": "station", "ele": null, "operator:type": null, "layer": null, "addr:full": null, "addr:city": null, "source": null, "name:be": "Лапічы", "name:ru": "Лапичи", "osm_id": 306067113, "osm_type": "nodes" }, "geometry": { "type": "Point", "coordinates": [ 28.4873098, 53.428305 ] } },
{ "type": "Feature", "properties": { "name": "Пціч", "name:en": null, "railway": "station", "ele": null, "operator:type": null, "layer": null, "addr:full": null, "addr:city": null, "source": null, "name:be": "Пціч", "name:ru": "Птичь", "osm_id": 306068920, "osm_type": "nodes" }, "geometry": { "type": "Point", "coordinates": [ 28.8184389, 52.185646 ] } },
{ "type": "Feature", "properties": { "name": "Ясельда", "name:en": null, "railway": "station", "ele": null, "operator:type": null, "layer": null, "addr:full": null, "addr:city": null, "source": null, "name:be": "Ясельда", "name:ru": "Ясельда", "osm_id": 306069456, "osm_type": "nodes" }, "geometry": { "type": "Point", "coordinates": [ 26.2521286, 52.1755366 ] } },
{ "type": "Feature", "properties": { "name": "Орша-Усходняя", "name:en": "Orsha-East", "railway": "station", "ele": null, "operator:type": null, "layer": null, "addr:full": null, "addr:city": null, "source": null, "name:be": "Орша-Усходняя", "name:ru": "Орша-Восточная", "osm_id": 919483758, "osm_type": "nodes" }, "geometry": { "type": "Point", "coordinates": [ 30.4018903, 54.5063136 ] } },
{ "type": "Feature", "properties": { "name": "Голя", "name:en": null, "railway": "station", "ele": null, "operator:type": null, "layer": null, "addr:full": null, "addr:city": null, "source": null, "name:be": "Голя", "name:ru": "Голя", "osm_id": 5057933660, "osm_type": "nodes" }, "geometry": { "type": "Point", "coordinates": [ 23.354512, 52.4598697 ] } },
{ "type": "Feature", "properties": { "name": "Уць", "name:en": null, "railway": "station", "ele": null, "operator:type": null, "layer": null, "addr:full": null, "addr:city": null, "source": null, "name:be": "Уць", "name:ru": "Уть", "osm_id": 5248444625, "osm_type": "nodes" }, "geometry": { "type": "Point", "coordinates": [ 31.0784828, 52.3071217 ] } },
{ "type": "Feature", "properties": { "name": "Рось", "name:en": null, "railway": "station", "ele": null, "operator:type": null, "layer": null, "addr:full": null, "addr:city": null, "source": null, "name:be": "Рось", "name:ru": "Рось", "osm_id": 6165244777, "osm_type": "nodes" }, "geometry": { "type": "Point", "coordinates": [ 24.4239852, 53.2936201 ] } },
{ "type": "Feature", "properties": { "name": "Касцюкоўка", "name:en": null, "railway": "station", "ele": null, "operator:type": null, "layer": null, "addr:full": null, "addr:city": null, "source": null, "name:be": "Касцюкоўка", "name:ru": "Костюковка", "osm_id": 8921148867, "osm_type": "nodes" }, "geometry": { "type": "Point", "coordinates": [ 30.9407777, 52.5241699 ] } },
{ "type": "Feature", "properties": { "name": "Гарадок", "name:en": null, "railway": "station", "ele": null, "operator:type": null, "layer": null, "addr:full": null, "addr:city": null, "source": null, "name:be": "Гарадок", "name:ru": "Городок", "osm_id": 27077492, "osm_type": "nodes" }, "geometry": { "type": "Point", "coordinates": [ 30.0048825, 55.4708831 ] } },
{ "type": "Feature", "properties": { "name": "Бычыха", "name:en": null, "railway": "station", "ele": null, "operator:type": null, "layer": null, "addr:full": null, "addr:city": null, "source": null, "name:be": "Бычыха", "name:ru": "Бычиха", "osm_id": 27077712, "osm_type": "nodes" }, "geometry": { "type": "Point", "coordinates": [ 29.9779673, 55.6764955 ] } },
{ "type": "Feature", "properties": { "name": "Лужасна", "name:en": null, "railway": "station", "ele": null, "operator:type": null, "layer": null, "addr:full": null, "addr:city": null, "source": null, "name:be": "Лужасна", "name:ru": "Лужесно", "osm_id": 27239792, "osm_type": "nodes" }, "geometry": { "type": "Point", "coordinates": [ 30.1123772, 55.2553399 ] } },
{ "type": "Feature", "properties": { "name": "Баравуха", "name:en": null, "railway": "station", "ele": null, "operator:type": null, "layer": null, "addr:full": null, "addr:city": null, "source": null, "name:be": "Баравуха", "name:ru": "Баравуха", "osm_id": 119298101, "osm_type": "nodes" }, "geometry": { "type": "Point", "coordinates": [ 28.5964339, 55.5845805 ] } },
{ "type": "Feature", "properties": { "name": "Беняконі", "name:en": null, "railway": "station", "ele": null, "operator:type": null, "layer": null, "addr:full": null, "addr:city": null, "source": null, "name:be": "Беняконі", "name:ru": "Беняконе", "osm_id": 159923505, "osm_type": "nodes" }, "geometry": { "type": "Point", "coordinates": [ 25.3530628, 54.2455245 ] } },
{ "type": "Feature", "properties": { "name": "Каменная Горка", "name:en": "Kamiennaja Horka", "railway": "station", "ele": null, "operator:type": null, "layer": null, "addr:full": null, "addr:city": null, "source": null, "name:be": "Каменная Горка", "name:ru": "Каменная Горка", "osm_id": 209186405, "osm_type": "nodes" }, "geometry": { "type": "Point", "coordinates": [ 27.4359041, 53.9069094 ] } },
{ "type": "Feature", "properties": { "name": "Спартыўная", "name:en": "Spartyŭnaja", "railway": "station", "ele": null, "operator:type": null, "layer": null, "addr:full": null, "addr:city": "Мінск", "source": null, "name:be": "Спартыўная", "name:ru": "Спортивная", "osm_id": 209186410, "osm_type": "nodes" }, "geometry": { "type": "Point", "coordinates": [ 27.4795368, 53.9084273 ] } },
{ "type": "Feature", "properties": { "name": "Пушкінская", "name:en": "Puškinskaja", "railway": "station", "ele": null, "operator:type": null, "layer": null, "addr:full": null, "addr:city": null, "source": null, "name:be": "Пушкінская", "name:ru": "Пушкинская", "osm_id": 209186411, "osm_type": "nodes" }, "geometry": { "type": "Point", "coordinates": [ 27.4977357, 53.909671 ] } },
{ "type": "Feature", "properties": { "name": "Прудок", "name:en": null, "railway": "station", "ele": null, "operator:type": null, "layer": null, "addr:full": null, "addr:city": null, "source": null, "name:be": "Прудок", "name:ru": "Прудок", "osm_id": 27077518, "osm_type": "nodes" }, "geometry": { "type": "Point", "coordinates": [ 29.9638677, 55.5036833 ] } },
{ "type": "Feature", "properties": { "name": "Мінск-Пасажырскі", "name:en": null, "railway": "station", "ele": null, "operator:type": null, "layer": null, "addr:full": null, "addr:city": null, "source": null, "name:be": "Мінск-Пасажырскі", "name:ru": "Минск-Пассажирский", "osm_id": 27184541, "osm_type": "nodes" }, "geometry": { "type": "Point", "coordinates": [ 27.5490868, 53.8905701 ] } },
{ "type": "Feature", "properties": { "name": "Лосвіда", "name:en": null, "railway": "station", "ele": null, "operator:type": null, "layer": null, "addr:full": null, "addr:city": null, "source": null, "name:be": "Лосвіда", "name:ru": "Лосвидо", "osm_id": 27239749, "osm_type": "nodes" }, "geometry": { "type": "Point", "coordinates": [ 30.0882566, 55.3288609 ] } },
{ "type": "Feature", "properties": { "name": "Фаміно", "name:en": null, "railway": "station", "ele": null, "operator:type": null, "layer": null, "addr:full": null, "addr:city": null, "source": null, "name:be": "Фаміно", "name:ru": "Фомино", "osm_id": 119298140, "osm_type": "nodes" }, "geometry": { "type": "Point", "coordinates": [ 28.9436801, 55.449785 ] } },
{ "type": "Feature", "properties": { "name": "Палата", "name:en": null, "railway": "station", "ele": null, "operator:type": null, "layer": null, "addr:full": null, "addr:city": null, "source": null, "name:be": "Палата", "name:ru": "Полота", "osm_id": 119324550, "osm_type": "nodes" }, "geometry": { "type": "Point", "coordinates": [ 29.041305, 55.6037838 ] } },
{ "type": "Feature", "properties": { "name": "Кунцаўшчына", "name:en": "Kuncaŭščyna", "railway": "station", "ele": null, "operator:type": null, "layer": null, "addr:full": null, "addr:city": null, "source": null, "name:be": "Кунцаўшчына", "name:ru": "Кунцевщина", "osm_id": 209186407, "osm_type": "nodes" }, "geometry": { "type": "Point", "coordinates": [ 27.4539802, 53.9062312 ] } },
{ "type": "Feature", "properties": { "name": "Першамайская", "name:en": "Pieršamajskaja", "railway": "station", "ele": null, "operator:type": null, "layer": null, "addr:full": null, "addr:city": null, "source": null, "name:be": "Першамайская", "name:ru": "Первомайская", "osm_id": 209186417, "osm_type": "nodes" }, "geometry": { "type": "Point", "coordinates": [ 27.5709184, 53.8938442 ] } },
{ "type": "Feature", "properties": { "name": "Пралетарская", "name:en": "Pralietarskaja", "railway": "station", "ele": null, "operator:type": null, "layer": null, "addr:full": null, "addr:city": null, "source": null, "name:be": "Пралетарская", "name:ru": "Пролетарская", "osm_id": 209186421, "osm_type": "nodes" }, "geometry": { "type": "Point", "coordinates": [ 27.5864709, 53.8902509 ] } },
{ "type": "Feature", "properties": { "name": "Аўтазаводская", "name:en": "Aŭtazavodskaja", "railway": "station", "ele": null, "operator:type": null, "layer": null, "addr:full": null, "addr:city": null, "source": null, "name:be": "Аўтазаводская", "name:ru": "Автозаводская", "osm_id": 209186424, "osm_type": "nodes" }, "geometry": { "type": "Point", "coordinates": [ 27.6479536, 53.8692203 ] } },
{ "type": "Feature", "properties": { "name": "Партызанская", "name:en": "Partyzanskaja", "railway": "station", "ele": null, "operator:type": null, "layer": null, "addr:full": null, "addr:city": null, "source": null, "name:be": "Партызанская", "name:ru": "Партизанская", "osm_id": 248520179, "osm_type": "nodes" }, "geometry": { "type": "Point", "coordinates": [ 27.6288809, 53.8762966 ] } },
{ "type": "Feature", "properties": { "name": "Маладзёжная", "name:en": "Maladziožnaja", "railway": "station", "ele": null, "operator:type": null, "layer": null, "addr:full": null, "addr:city": null, "source": null, "name:be": "Маладзёжная", "name:ru": "Молодёжная", "osm_id": 266680843, "osm_type": "nodes" }, "geometry": { "type": "Point", "coordinates": [ 27.5229027, 53.9066349 ] } },
{ "type": "Feature", "properties": { "name": "Ратамка", "name:en": null, "railway": "station", "ele": null, "operator:type": null, "layer": null, "addr:full": null, "addr:city": null, "source": null, "name:be": "Ратамка", "name:ru": "Ратомка", "osm_id": 271091545, "osm_type": "nodes" }, "geometry": { "type": "Point", "coordinates": [ 27.3471236, 53.9407828 ] } },
{ "type": "Feature", "properties": { "name": "Валаскоўня", "name:en": null, "railway": "station", "ele": null, "operator:type": null, "layer": null, "addr:full": null, "addr:city": null, "source": null, "name:be": "Валаскоўня", "name:ru": "Волосковня", "osm_id": 271091702, "osm_type": "nodes" }, "geometry": { "type": "Point", "coordinates": [ 32.040852, 53.4497691 ] } },
{ "type": "Feature", "properties": { "name": "Няміга", "name:en": "Niamiha", "railway": "station", "ele": null, "operator:type": null, "layer": null, "addr:full": null, "addr:city": null, "source": null, "name:be": "Няміга", "name:ru": "Немига", "osm_id": 209186415, "osm_type": "nodes" }, "geometry": { "type": "Point", "coordinates": [ 27.5540258, 53.9058375 ] } },
{ "type": "Feature", "properties": { "name": "Трактарны завод", "name:en": "Traktarny zavod", "railway": "station", "ele": null, "operator:type": null, "layer": null, "addr:full": null, "addr:city": null, "source": null, "name:be": "Трактарны завод", "name:ru": "Тракторный завод", "osm_id": 209186423, "osm_type": "nodes" }, "geometry": { "type": "Point", "coordinates": [ 27.6145005, 53.8899194 ] } },
{ "type": "Feature", "properties": { "name": "Магілёўская", "name:en": "Mahilioŭskaja", "railway": "station", "ele": null, "operator:type": null, "layer": null, "addr:full": null, "addr:city": null, "source": null, "name:be": "Магілёўская", "name:ru": "Могилёвская", "osm_id": 209186425, "osm_type": "nodes" }, "geometry": { "type": "Point", "coordinates": [ 27.6742453, 53.861991 ] } },
{ "type": "Feature", "properties": { "name": "Брынёва", "name:en": null, "railway": "station", "ele": null, "operator:type": null, "layer": null, "addr:full": null, "addr:city": null, "source": null, "name:be": "Брынёва", "name:ru": "Бринёво", "osm_id": 271041159, "osm_type": "nodes" }, "geometry": { "type": "Point", "coordinates": [ 28.0013029, 52.2530004 ] } },
{ "type": "Feature", "properties": { "name": "Талька", "name:en": null, "railway": "station", "ele": null, "operator:type": null, "layer": null, "addr:full": null, "addr:city": null, "source": null, "name:be": "Талька", "name:ru": "Талька", "osm_id": 271042480, "osm_type": "nodes" }, "geometry": { "type": "Point", "coordinates": [ 28.3413823, 53.3740626 ] } },
{ "type": "Feature", "properties": { "name": "Заслонава", "name:en": null, "railway": "station", "ele": null, "operator:type": null, "layer": null, "addr:full": null, "addr:city": null, "source": null, "name:be": "Заслонава", "name:ru": "Заслоново", "osm_id": 271044537, "osm_type": "nodes" }, "geometry": { "type": "Point", "coordinates": [ 28.9304721, 54.8742944 ] } },
{ "type": "Feature", "properties": { "name": "Ратміравічы", "name:en": null, "railway": "station", "ele": null, "operator:type": null, "layer": null, "addr:full": null, "addr:city": null, "source": null, "name:be": "Ратміравічы", "name:ru": "Ратмировичи", "osm_id": 271044590, "osm_type": "nodes" }, "geometry": { "type": "Point", "coordinates": [ 28.9559827, 52.7749669 ] } },
{ "type": "Feature", "properties": { "name": "Жэрдзь", "name:en": null, "railway": "station", "ele": null, "operator:type": null, "layer": null, "addr:full": null, "addr:city": null, "source": null, "name:be": "Жэрдзь", "name:ru": "Жердь", "osm_id": 271085432, "osm_type": "nodes" }, "geometry": { "type": "Point", "coordinates": [ 29.6290894, 52.5485851 ] } },
{ "type": "Feature", "properties": { "name": "Ваўкавыск-Горад", "name:en": null, "railway": "station", "ele": null, "operator:type": null, "layer": null, "addr:full": null, "addr:city": null, "source": null, "name:be": "Ваўкавыск-Горад", "name:ru": "Волковыск-Город", "osm_id": 272845467, "osm_type": "nodes" }, "geometry": { "type": "Point", "coordinates": [ 24.4490588, 53.1542492 ] } },
{ "type": "Feature", "properties": { "name": "Фаніпаль", "name:en": "Fanipal", "railway": "station", "ele": null, "operator:type": null, "layer": null, "addr:full": null, "addr:city": null, "source": null, "name:be": "Фаніпаль", "name:ru": "Фаниполь", "osm_id": 271040381, "osm_type": "nodes" }, "geometry": { "type": "Point", "coordinates": [ 27.3349492, 53.7446674 ] } },
{ "type": "Feature", "properties": { "name": "Лепель", "name:en": null, "railway": "station", "ele": null, "operator:type": null, "layer": null, "addr:full": null, "addr:city": null, "source": null, "name:be": "Лепель", "name:ru": "Лепель", "osm_id": 271043772, "osm_type": "nodes" }, "geometry": { "type": "Point", "coordinates": [ 28.6910378, 54.8754568 ] } },
{ "type": "Feature", "properties": { "name": "Памыслішча", "name:en": null, "railway": "station", "ele": null, "operator:type": null, "layer": null, "addr:full": null, "addr:city": null, "source": null, "name:be": "Памыслішча", "name:ru": "Помыслище", "osm_id": 271092132, "osm_type": "nodes" }, "geometry": { "type": "Point", "coordinates": [ 27.4534849, 53.8154926 ] } },
{ "type": "Feature", "properties": { "name": "Купалаўская", "name:en": "Kupalaŭskaja", "railway": "station", "ele": null, "operator:type": null, "layer": null, "addr:full": null, "addr:city": null, "source": null, "name:be": "Купалаўская", "name:ru": "Купаловская", "osm_id": 277039518, "osm_type": "nodes" }, "geometry": { "type": "Point", "coordinates": [ 27.5618112, 53.9009334 ] } },
{ "type": "Feature", "properties": { "name": "Фрунзенская", "name:en": "Frunzienskaja", "railway": "station", "ele": null, "operator:type": null, "layer": null, "addr:full": null, "addr:city": null, "source": null, "name:be": "Фрунзенская", "name:ru": "Фрунзенская", "osm_id": 278394361, "osm_type": "nodes" }, "geometry": { "type": "Point", "coordinates": [ 27.5393148, 53.9053364 ] } },
{ "type": "Feature", "properties": { "name": "Стоўбцы", "name:en": null, "railway": "station", "ele": null, "operator:type": null, "layer": null, "addr:full": null, "addr:city": null, "source": null, "name:be": "Стоўбцы", "name:ru": "Столбцы", "osm_id": 278618048, "osm_type": "nodes" }, "geometry": { "type": "Point", "coordinates": [ 26.7560125, 53.4824032 ] } },
{ "type": "Feature", "properties": { "name": "Сцяпянка", "name:en": null, "railway": "station", "ele": null, "operator:type": null, "layer": null, "addr:full": null, "addr:city": null, "source": null, "name:be": "Сцяпянка", "name:ru": "Степянка", "osm_id": 282162417, "osm_type": "nodes" }, "geometry": { "type": "Point", "coordinates": [ 27.6633113, 53.9146131 ] } },
{ "type": "Feature", "properties": { "name": "Азярышча", "name:en": null, "railway": "station", "ele": null, "operator:type": null, "layer": null, "addr:full": null, "addr:city": null, "source": null, "name:be": "Азярышча", "name:ru": "Озерище", "osm_id": 282163128, "osm_type": "nodes" }, "geometry": { "type": "Point", "coordinates": [ 27.7166407, 53.9325829 ] } },
{ "type": "Feature", "properties": { "name": "Калядзічы", "name:en": null, "railway": "station", "ele": null, "operator:type": null, "layer": null, "addr:full": null, "addr:city": null, "source": null, "name:be": "Калядзічы", "name:ru": "Колядичи", "osm_id": 288115364, "osm_type": "nodes" }, "geometry": { "type": "Point", "coordinates": [ 27.5797714, 53.8080972 ] } },
{ "type": "Feature", "properties": { "name": "Гарадзішча", "name:en": null, "railway": "station", "ele": null, "operator:type": null, "layer": null, "addr:full": null, "addr:city": null, "source": null, "name:be": "Гарадзішча", "name:ru": "Городище", "osm_id": 288126829, "osm_type": "nodes" }, "geometry": { "type": "Point", "coordinates": [ 27.8469774, 53.9867208 ] } },
{ "type": "Feature", "properties": { "name": "Фалічы", "name:en": null, "railway": "station", "ele": null, "operator:type": null, "layer": null, "addr:full": null, "addr:city": null, "source": null, "name:be": "Фалічы", "name:ru": "Фаличи", "osm_id": 306063744, "osm_type": "nodes" }, "geometry": { "type": "Point", "coordinates": [ 28.3261022, 53.1205096 ] } },
{ "type": "Feature", "properties": { "name": "Бабічы", "name:en": null, "railway": "station", "ele": null, "operator:type": null, "layer": null, "addr:full": null, "addr:city": null, "source": null, "name:be": "Бабічы", "name:ru": "Бабичи", "osm_id": 306064168, "osm_type": "nodes" }, "geometry": { "type": "Point", "coordinates": [ 30.000732, 52.2912163 ] } },
{ "type": "Feature", "properties": { "name": "Васілевічы", "name:en": null, "railway": "station", "ele": null, "operator:type": null, "layer": null, "addr:full": null, "addr:city": null, "source": null, "name:be": "Васілевічы", "name:ru": "Василевичи", "osm_id": 306064170, "osm_type": "nodes" }, "geometry": { "type": "Point", "coordinates": [ 29.8281995, 52.2551559 ] } },
{ "type": "Feature", "properties": { "name": "Якімаўка", "name:en": null, "railway": "station", "ele": null, "operator:type": null, "layer": null, "addr:full": null, "addr:city": null, "source": null, "name:be": "Якімаўка", "name:ru": "Якимовка", "osm_id": 306064348, "osm_type": "nodes" }, "geometry": { "type": "Point", "coordinates": [ 30.5860307, 52.3682522 ] } },
{ "type": "Feature", "properties": { "name": "Лышчыцы", "name:en": null, "railway": "station", "ele": null, "operator:type": null, "layer": null, "addr:full": null, "addr:city": null, "source": null, "name:be": "Лышчыцы", "name:ru": "Лыщицы", "osm_id": 306064417, "osm_type": "nodes" }, "geometry": { "type": "Point", "coordinates": [ 23.4942686, 52.2579289 ] } },
{ "type": "Feature", "properties": { "name": "Халоднікі", "name:en": null, "railway": "station", "ele": null, "operator:type": null, "layer": null, "addr:full": null, "addr:city": null, "source": null, "name:be": "Халоднікі", "name:ru": "Холодники", "osm_id": 306064603, "osm_type": "nodes" }, "geometry": { "type": "Point", "coordinates": [ 29.4713263, 52.3629974 ] } },
{ "type": "Feature", "properties": { "name": "Гарочычы", "name:en": null, "railway": "station", "ele": null, "operator:type": null, "layer": null, "addr:full": null, "addr:city": null, "source": null, "name:be": "Гарочычы", "name:ru": "Горочичи", "osm_id": 306064609, "osm_type": "nodes" }, "geometry": { "type": "Point", "coordinates": [ 29.420223, 52.2699834 ] } },
{ "type": "Feature", "properties": { "name": "Кацуры", "name:en": null, "railway": "station", "ele": null, "operator:type": null, "layer": null, "addr:full": null, "addr:city": null, "source": null, "name:be": "Кацуры", "name:ru": "Кацуры", "osm_id": 306064649, "osm_type": "nodes" }, "geometry": { "type": "Point", "coordinates": [ 29.0248571, 52.16527 ] } },
{ "type": "Feature", "properties": { "name": "Міхалкі", "name:en": null, "railway": "station", "ele": null, "operator:type": null, "layer": null, "addr:full": null, "addr:city": null, "source": null, "name:be": "Міхалкі", "name:ru": "Михалки", "osm_id": 306064707, "osm_type": "nodes" }, "geometry": { "type": "Point", "coordinates": [ 29.2053136, 51.9528259 ] } },
{ "type": "Feature", "properties": { "name": "Барбароў", "name:en": null, "railway": "station", "ele": null, "operator:type": null, "layer": null, "addr:full": null, "addr:city": null, "source": null, "name:be": "Барбароў", "name:ru": "Барбаров", "osm_id": 306064714, "osm_type": "nodes" }, "geometry": { "type": "Point", "coordinates": [ 29.2730469, 51.900985 ] } },
{ "type": "Feature", "properties": { "name": "Юшкі", "name:en": null, "railway": "station", "ele": null, "operator:type": null, "layer": null, "addr:full": null, "addr:city": null, "source": null, "name:be": "Юшкі", "name:ru": "Юшки", "osm_id": 306064717, "osm_type": "nodes" }, "geometry": { "type": "Point", "coordinates": [ 29.3855367, 52.2147864 ] } },
{ "type": "Feature", "properties": { "name": "Посудово", "name:en": null, "railway": "station", "ele": null, "operator:type": null, "layer": null, "addr:full": null, "addr:city": null, "source": null, "name:be": "Посудово", "name:ru": "Посудово", "osm_id": 306064803, "osm_type": "nodes" }, "geometry": { "type": "Point", "coordinates": [ 30.3271357, 51.4737446 ] } },
{ "type": "Feature", "properties": { "name": "Высока-Літоўск", "name:en": null, "railway": "station", "ele": null, "operator:type": null, "layer": null, "addr:full": null, "addr:city": null, "source": null, "name:be": "Высока-Літоўск", "name:ru": "Высоко-Литовск", "osm_id": 306062197, "osm_type": "nodes" }, "geometry": { "type": "Point", "coordinates": [ 23.3814132, 52.4004991 ] } },
{ "type": "Feature", "properties": { "name": "Рудзенск", "name:en": null, "railway": "station", "ele": null, "operator:type": null, "layer": null, "addr:full": null, "addr:city": null, "source": null, "name:be": "Рудзенск", "name:ru": "Руденск", "osm_id": 306063608, "osm_type": "nodes" }, "geometry": { "type": "Point", "coordinates": [ 27.8596657, 53.5967604 ] } },
{ "type": "Feature", "properties": { "name": "Урэчча", "name:en": null, "railway": "station", "ele": null, "operator:type": null, "layer": null, "addr:full": null, "addr:city": null, "source": null, "name:be": "Урэчча", "name:ru": "Уречье", "osm_id": 306063624, "osm_type": "nodes" }, "geometry": { "type": "Point", "coordinates": [ 27.908454, 52.9522372 ] } },
{ "type": "Feature", "properties": { "name": "Старыя Дарогі", "name:en": null, "railway": "station", "ele": null, "operator:type": null, "layer": null, "addr:full": null, "addr:city": null, "source": null, "name:be": "Старыя Дарогі", "name:ru": "Старые Дороги", "osm_id": 306063738, "osm_type": "nodes" }, "geometry": { "type": "Point", "coordinates": [ 28.2695073, 53.0407932 ] } },
{ "type": "Feature", "properties": { "name": "Навадворцы", "name:en": null, "railway": "station", "ele": null, "operator:type": null, "layer": null, "addr:full": null, "addr:city": null, "source": null, "name:be": "Навадворцы", "name:ru": "Новодворцы", "osm_id": 306063864, "osm_type": "nodes" }, "geometry": { "type": "Point", "coordinates": [ 27.5874383, 52.9973709 ] } },
{ "type": "Feature", "properties": { "name": "Некрашы", "name:en": null, "railway": "station", "ele": null, "operator:type": null, "layer": null, "addr:full": null, "addr:city": null, "source": null, "name:be": "Некрашы", "name:ru": "Некраши", "osm_id": 306064110, "osm_type": "nodes" }, "geometry": { "type": "Point", "coordinates": [ 27.6952464, 52.9836601 ] } },
{ "type": "Feature", "properties": { "name": "Ліскі", "name:en": null, "railway": "station", "ele": null, "operator:type": null, "layer": null, "addr:full": null, "addr:city": null, "source": null, "name:be": "Ліскі", "name:ru": "Лиски", "osm_id": 306064191, "osm_type": "nodes" }, "geometry": { "type": "Point", "coordinates": [ 30.0922896, 52.3256715 ] } },
{ "type": "Feature", "properties": { "name": "Рабуса", "name:en": null, "railway": "station", "ele": null, "operator:type": null, "layer": null, "addr:full": null, "addr:city": null, "source": null, "name:be": "Рабуса", "name:ru": "Ребуса", "osm_id": 306064197, "osm_type": "nodes" }, "geometry": { "type": "Point", "coordinates": [ 30.3066569, 52.342404 ] } },
{ "type": "Feature", "properties": { "name": "Уладава", "name:en": null, "railway": "station", "ele": null, "operator:type": null, "layer": null, "addr:full": null, "addr:city": null, "source": null, "name:be": "Уладава", "name:ru": "Влодава", "osm_id": 306064401, "osm_type": "nodes" }, "geometry": { "type": "Point", "coordinates": [ 23.6123037, 51.5513449 ] } },
{ "type": "Feature", "properties": { "name": "Дубіца", "name:en": null, "railway": "station", "ele": null, "operator:type": null, "layer": null, "addr:full": null, "addr:city": null, "source": null, "name:be": "Дубіца", "name:ru": "Дубица", "osm_id": 306064419, "osm_type": "nodes" }, "geometry": { "type": "Point", "coordinates": [ 23.6442503, 51.8046433 ] } },
{ "type": "Feature", "properties": { "name": "Кодзень", "name:en": null, "railway": "station", "ele": null, "operator:type": null, "layer": null, "addr:full": null, "addr:city": null, "source": null, "name:be": "Кодзень", "name:ru": "Кодень", "osm_id": 306064421, "osm_type": "nodes" }, "geometry": { "type": "Point", "coordinates": [ 23.6537499, 51.9247115 ] } },
{ "type": "Feature", "properties": { "name": "Матыкалы", "name:en": null, "railway": "station", "ele": null, "operator:type": null, "layer": null, "addr:full": null, "addr:city": null, "source": null, "name:be": "Матыкалы", "name:ru": "Мотыкалы", "osm_id": 306064466, "osm_type": "nodes" }, "geometry": { "type": "Point", "coordinates": [ 23.5818418, 52.208348 ] } },
{ "type": "Feature", "properties": { "name": "Галявіцы", "name:en": null, "railway": "station", "ele": null, "operator:type": null, "layer": null, "addr:full": null, "addr:city": null, "source": null, "name:be": "Галявіцы", "name:ru": "Голевицы", "osm_id": 306064604, "osm_type": "nodes" }, "geometry": { "type": "Point", "coordinates": [ 29.4926984, 52.1610106 ] } },
{ "type": "Feature", "properties": { "name": "Нахаў", "name:en": null, "railway": "station", "ele": null, "operator:type": null, "layer": null, "addr:full": null, "addr:city": null, "source": null, "name:be": "Нахаў", "name:ru": "Нахов", "osm_id": 306064643, "osm_type": "nodes" }, "geometry": { "type": "Point", "coordinates": [ 29.6736952, 52.2230515 ] } },
{ "type": "Feature", "properties": { "name": "Ельск", "name:en": null, "railway": "station", "ele": null, "operator:type": null, "layer": null, "addr:full": null, "addr:city": null, "source": null, "name:be": "Ельск", "name:ru": "Ельск", "osm_id": 306064705, "osm_type": "nodes" }, "geometry": { "type": "Point", "coordinates": [ 29.1535806, 51.821249 ] } },
{ "type": "Feature", "properties": { "name": "Фарынава", "name:en": null, "railway": "station", "ele": null, "operator:type": null, "layer": null, "addr:full": null, "addr:city": null, "source": null, "name:be": "Фарынава", "name:ru": "Фариново", "osm_id": 306064844, "osm_type": "nodes" }, "geometry": { "type": "Point", "coordinates": [ 28.5814255, 55.4240802 ] } },
{ "type": "Feature", "properties": { "name": "Верхнядзвінск", "name:en": null, "railway": "station", "ele": null, "operator:type": null, "layer": null, "addr:full": null, "addr:city": null, "source": null, "name:be": "Верхнядзвінск", "name:ru": "Верхнедвинск", "osm_id": 306064913, "osm_type": "nodes" }, "geometry": { "type": "Point", "coordinates": [ 27.94006, 55.8169101 ] } },
{ "type": "Feature", "properties": { "name": "Падсвілле", "name:en": null, "railway": "station", "ele": null, "operator:type": null, "layer": null, "addr:full": null, "addr:city": null, "source": null, "name:be": "Падсвілле", "name:ru": "Подсвилье", "osm_id": 306064922, "osm_type": "nodes" }, "geometry": { "type": "Point", "coordinates": [ 27.9758481, 55.1612064 ] } },
{ "type": "Feature", "properties": { "name": "Вонічы", "name:en": null, "railway": "station", "ele": null, "operator:type": null, "layer": null, "addr:full": null, "addr:city": null, "source": null, "name:be": "Вонічы", "name:ru": "Воничи", "osm_id": 306065276, "osm_type": "nodes" }, "geometry": { "type": "Point", "coordinates": [ 29.4991755, 53.5992327 ] } },
{ "type": "Feature", "properties": { "name": "Чырвоны Сцяг", "name:en": null, "railway": "station", "ele": null, "operator:type": null, "layer": null, "addr:full": null, "addr:city": null, "source": null, "name:be": "Чырвоны Сцяг", "name:ru": "Красное Знамя", "osm_id": 306065359, "osm_type": "nodes" }, "geometry": { "type": "Point", "coordinates": [ 28.2023532, 54.0382574 ] } },
{ "type": "Feature", "properties": { "name": "Жодзіна", "name:en": null, "railway": "station", "ele": null, "operator:type": null, "layer": null, "addr:full": null, "addr:city": null, "source": null, "name:be": "Жодзіна", "name:ru": "Жодино", "osm_id": 306065454, "osm_type": "nodes" }, "geometry": { "type": "Point", "coordinates": [ 28.3408076, 54.1023042 ] } },
{ "type": "Feature", "properties": { "name": "Гарадзея", "name:en": null, "railway": "station", "ele": null, "operator:type": null, "layer": null, "addr:full": null, "addr:city": null, "source": null, "name:be": "Гарадзея", "name:ru": "Городея", "osm_id": 306065881, "osm_type": "nodes" }, "geometry": { "type": "Point", "coordinates": [ 26.5379772, 53.3149057 ] } },
{ "type": "Feature", "properties": { "name": "Пагарэльцы", "name:en": null, "railway": "station", "ele": null, "operator:type": null, "layer": null, "addr:full": null, "addr:city": null, "source": null, "name:be": "Пагарэльцы", "name:ru": "Погорельцы", "osm_id": 306065943, "osm_type": "nodes" }, "geometry": { "type": "Point", "coordinates": [ 26.2963582, 53.2044448 ] } },
{ "type": "Feature", "properties": { "name": "Лёзна", "name:en": null, "railway": "station", "ele": null, "operator:type": null, "layer": null, "addr:full": null, "addr:city": null, "source": null, "name:be": "Лёзна", "name:ru": "Лиозно", "osm_id": 306065947, "osm_type": "nodes" }, "geometry": { "type": "Point", "coordinates": [ 30.7957765, 55.0135071 ] } },
{ "type": "Feature", "properties": { "name": "Завольша", "name:en": null, "railway": "station", "ele": null, "operator:type": null, "layer": null, "addr:full": null, "addr:city": null, "source": null, "name:be": "Завольша", "name:ru": "Заольша", "osm_id": 306065981, "osm_type": "nodes" }, "geometry": { "type": "Point", "coordinates": [ 30.9401072, 54.9884109 ] } },
{ "type": "Feature", "properties": { "name": "Каледзіно", "name:en": null, "railway": "station", "ele": null, "operator:type": null, "layer": null, "addr:full": null, "addr:city": null, "source": null, "name:be": "Каледзіно", "name:ru": "Каледино", "osm_id": 306066060, "osm_type": "nodes" }, "geometry": { "type": "Point", "coordinates": [ 26.8107916, 54.2991826 ] } },
{ "type": "Feature", "properties": { "name": "Багушэўская", "name:en": null, "railway": "station", "ele": null, "operator:type": null, "layer": null, "addr:full": null, "addr:city": null, "source": null, "name:be": "Багушэўская", "name:ru": "Богушевская", "osm_id": 306066261, "osm_type": "nodes" }, "geometry": { "type": "Point", "coordinates": [ 30.2071672, 54.842672 ] } },
{ "type": "Feature", "properties": { "name": "Багданаў", "name:en": null, "railway": "station", "ele": null, "operator:type": null, "layer": null, "addr:full": null, "addr:city": null, "source": null, "name:be": "Багданаў", "name:ru": "Богданов", "osm_id": 306066293, "osm_type": "nodes" }, "geometry": { "type": "Point", "coordinates": [ 26.1538741, 54.171179 ] } },
{ "type": "Feature", "properties": { "name": "Залучча", "name:en": null, "railway": "station", "ele": null, "operator:type": null, "layer": null, "addr:full": null, "addr:city": null, "source": null, "name:be": "Залучча", "name:ru": "Залучье", "osm_id": 306066519, "osm_type": "nodes" }, "geometry": { "type": "Point", "coordinates": [ 30.0590108, 55.4086041 ] } },
{ "type": "Feature", "properties": { "name": "Коханава", "name:en": null, "railway": "station", "ele": null, "operator:type": null, "layer": null, "addr:full": null, "addr:city": null, "source": null, "name:be": "Коханава", "name:ru": "Коханово", "osm_id": 306066530, "osm_type": "nodes" }, "geometry": { "type": "Point", "coordinates": [ 30.0353945, 54.4702321 ] } },
{ "type": "Feature", "properties": { "name": "Асіповічы 1", "name:en": "Osipovichy 1", "railway": "station", "ele": null, "operator:type": null, "layer": null, "addr:full": null, "addr:city": null, "source": null, "name:be": "Асіповічы 1", "name:ru": "Осиповичи-1", "osm_id": 306066747, "osm_type": "nodes" }, "geometry": { "type": "Point", "coordinates": [ 28.6460443, 53.2995274 ] } },
{ "type": "Feature", "properties": { "name": "Загацце", "name:en": null, "railway": "station", "ele": null, "operator:type": null, "layer": null, "addr:full": null, "addr:city": null, "source": null, "name:be": "Загацце", "name:ru": "Загатье", "osm_id": 306064880, "osm_type": "nodes" }, "geometry": { "type": "Point", "coordinates": [ 28.3465611, 55.3460655 ] } },
{ "type": "Feature", "properties": { "name": "Баравое", "name:en": null, "railway": "station", "ele": null, "operator:type": null, "layer": null, "addr:full": null, "addr:city": null, "source": null, "name:be": "Баравое", "name:ru": "Боровое", "osm_id": 306064920, "osm_type": "nodes" }, "geometry": { "type": "Point", "coordinates": [ 28.079613, 55.2146366 ] } },
{ "type": "Feature", "properties": { "name": "Парафʼянаў", "name:en": null, "railway": "station", "ele": null, "operator:type": null, "layer": null, "addr:full": null, "addr:city": null, "source": null, "name:be": "Парафʼянаў", "name:ru": "Парафьяново", "osm_id": 306065007, "osm_type": "nodes" }, "geometry": { "type": "Point", "coordinates": [ 27.6029247, 54.8786346 ] } },
{ "type": "Feature", "properties": { "name": "Шаркаўшчына", "name:en": null, "railway": "station", "ele": null, "operator:type": null, "layer": null, "addr:full": null, "addr:city": null, "source": null, "name:be": "Шаркаўшчына", "name:ru": "Шарковщизна", "osm_id": 306065015, "osm_type": "nodes" }, "geometry": { "type": "Point", "coordinates": [ 27.4695805, 55.368004 ] } },
{ "type": "Feature", "properties": { "name": "Друя", "name:en": null, "railway": "station", "ele": null, "operator:type": null, "layer": null, "addr:full": null, "addr:city": null, "source": null, "name:be": "Друя", "name:ru": "Друя", "osm_id": 306065017, "osm_type": "nodes" }, "geometry": { "type": "Point", "coordinates": [ 27.4803948, 55.7783723 ] } },
{ "type": "Feature", "properties": { "name": "Савічы", "name:en": null, "railway": "station", "ele": null, "operator:type": null, "layer": null, "addr:full": null, "addr:city": null, "source": null, "name:be": "Савічы", "name:ru": "Савичи", "osm_id": 306065305, "osm_type": "nodes" }, "geometry": { "type": "Point", "coordinates": [ 29.3713489, 53.0859959 ] } },
{ "type": "Feature", "properties": { "name": "Нясята", "name:en": null, "railway": "station", "ele": null, "operator:type": null, "layer": null, "addr:full": null, "addr:city": null, "source": null, "name:be": "Нясята", "name:ru": "Несета", "osm_id": 306065309, "osm_type": "nodes" }, "geometry": { "type": "Point", "coordinates": [ 29.2416807, 53.5093387 ] } },
{ "type": "Feature", "properties": { "name": "Цялуша", "name:en": null, "railway": "station", "ele": null, "operator:type": null, "layer": null, "addr:full": null, "addr:city": null, "source": null, "name:be": "Цялуша", "name:ru": "Телуша", "osm_id": 306065315, "osm_type": "nodes" }, "geometry": { "type": "Point", "coordinates": [ 29.5148783, 53.0426043 ] } },
{ "type": "Feature", "properties": { "name": "Княгінін", "name:en": null, "railway": "station", "ele": null, "operator:type": null, "layer": null, "addr:full": null, "addr:city": null, "source": null, "name:be": "Княгінін", "name:ru": "Княгинин", "osm_id": 306065959, "osm_type": "nodes" }, "geometry": { "type": "Point", "coordinates": [ 27.1831247, 54.6749256 ] } },
{ "type": "Feature", "properties": { "name": "Орша-Паўночная", "name:en": "Orsha-North", "railway": "station", "ele": null, "operator:type": null, "layer": null, "addr:full": null, "addr:city": null, "source": null, "name:be": "Орша-Паўночная", "name:ru": "Орша-Северная", "osm_id": 306066018, "osm_type": "nodes" }, "geometry": { "type": "Point", "coordinates": [ 30.4476129, 54.5422401 ] } },
{ "type": "Feature", "properties": { "name": "Асінаўка", "name:en": null, "railway": "station", "ele": null, "operator:type": null, "layer": null, "addr:full": null, "addr:city": null, "source": null, "name:be": "Асінаўка", "name:ru": "Осиновка", "osm_id": 306066031, "osm_type": "nodes" }, "geometry": { "type": "Point", "coordinates": [ 30.6587692, 54.6496923 ] } },
{ "type": "Feature", "properties": { "name": "Хлюсціна", "name:en": null, "railway": "station", "ele": null, "operator:type": null, "layer": null, "addr:full": null, "addr:city": null, "source": null, "name:be": "Хлюсціна", "name:ru": "Хлюстино", "osm_id": 306066034, "osm_type": "nodes" }, "geometry": { "type": "Point", "coordinates": [ 30.5638494, 54.6207756 ] } },
{ "type": "Feature", "properties": { "name": "Замасточча", "name:en": null, "railway": "station", "ele": null, "operator:type": null, "layer": null, "addr:full": null, "addr:city": null, "source": null, "name:be": "Замасточча", "name:ru": "Замосточье", "osm_id": 306066267, "osm_type": "nodes" }, "geometry": { "type": "Point", "coordinates": [ 30.1765541, 55.0134354 ] } },
{ "type": "Feature", "properties": { "name": "Забалоцінка", "name:en": null, "railway": "station", "ele": null, "operator:type": null, "layer": null, "addr:full": null, "addr:city": null, "source": null, "name:be": "Забалоцінка", "name:ru": "Заболотинка", "osm_id": 306066283, "osm_type": "nodes" }, "geometry": { "type": "Point", "coordinates": [ 30.2979578, 55.1113141 ] } },
{ "type": "Feature", "properties": { "name": "Прыдзвінская", "name:en": null, "railway": "station", "ele": null, "operator:type": null, "layer": null, "addr:full": null, "addr:city": null, "source": null, "name:be": "Прыдзвінская", "name:ru": "Придвинская", "osm_id": 306066284, "osm_type": "nodes" }, "geometry": { "type": "Point", "coordinates": [ 30.3025634, 55.2850241 ] } },
{ "type": "Feature", "properties": { "name": "Віцьба", "name:en": null, "railway": "station", "ele": null, "operator:type": null, "layer": null, "addr:full": null, "addr:city": null, "source": null, "name:be": "Віцьба", "name:ru": "Витьба", "osm_id": 306066290, "osm_type": "nodes" }, "geometry": { "type": "Point", "coordinates": [ 30.2683635, 55.222075 ] } },
{ "type": "Feature", "properties": { "name": "Мірадзіна", "name:en": null, "railway": "station", "ele": null, "operator:type": null, "layer": null, "addr:full": null, "addr:city": null, "source": null, "name:be": "Мірадзіна", "name:ru": "Мирадино", "osm_id": 306066576, "osm_type": "nodes" }, "geometry": { "type": "Point", "coordinates": [ 29.0677726, 53.1764804 ] } },
{ "type": "Feature", "properties": { "name": "Красны Брод", "name:en": null, "railway": "station", "ele": null, "operator:type": null, "layer": null, "addr:full": null, "addr:city": null, "source": null, "name:be": "Красны Брод", "name:ru": "Красный Брод", "osm_id": 306066613, "osm_type": "nodes" }, "geometry": { "type": "Point", "coordinates": [ 29.1681807, 53.0317596 ] } },
{ "type": "Feature", "properties": { "name": "Градзянка", "name:en": null, "railway": "station", "ele": null, "operator:type": null, "layer": null, "addr:full": null, "addr:city": null, "source": null, "name:be": "Градзянка", "name:ru": "Гродзянка", "osm_id": 306066643, "osm_type": "nodes" }, "geometry": { "type": "Point", "coordinates": [ 28.7431732, 53.5457397 ] } },
{ "type": "Feature", "properties": { "name": "Верайцы", "name:en": null, "railway": "station", "ele": null, "operator:type": null, "layer": null, "addr:full": null, "addr:city": null, "source": null, "name:be": "Верайцы", "name:ru": "Верейцы", "osm_id": 306066694, "osm_type": "nodes" }, "geometry": { "type": "Point", "coordinates": [ 28.5197067, 53.3383849 ] } },
{ "type": "Feature", "properties": { "name": "Дзераўцы", "name:en": null, "railway": "station", "ele": null, "operator:type": null, "layer": null, "addr:full": null, "addr:city": null, "source": null, "name:be": "Дзераўцы", "name:ru": "Деревцы", "osm_id": 306066702, "osm_type": "nodes" }, "geometry": { "type": "Point", "coordinates": [ 28.5621254, 53.2548902 ] } },
{ "type": "Feature", "properties": { "name": "Дараганава", "name:en": null, "railway": "station", "ele": null, "operator:type": null, "layer": null, "addr:full": null, "addr:city": null, "source": null, "name:be": "Дараганава", "name:ru": "Дараганово", "osm_id": 306066714, "osm_type": "nodes" }, "geometry": { "type": "Point", "coordinates": [ 28.4906032, 53.1766559 ] } },
{ "type": "Feature", "properties": { "name": "Асіповічы 2", "name:en": null, "railway": "station", "ele": null, "operator:type": null, "layer": null, "addr:full": null, "addr:city": null, "source": null, "name:be": "Асіповічы 2", "name:ru": "Осиповичи-2", "osm_id": 306066763, "osm_type": "nodes" }, "geometry": { "type": "Point", "coordinates": [ 28.7041196, 53.3021327 ] } },
{ "type": "Feature", "properties": { "name": "Алёшча", "name:en": null, "railway": "station", "ele": null, "operator:type": null, "layer": null, "addr:full": null, "addr:city": null, "source": null, "name:be": "Алёшча", "name:ru": "Алёща", "osm_id": 306066822, "osm_type": "nodes" }, "geometry": { "type": "Point", "coordinates": [ 29.3300532, 55.7344613 ] } },
{ "type": "Feature", "properties": { "name": "Слаўнае", "name:en": null, "railway": "station", "ele": null, "operator:type": null, "layer": null, "addr:full": null, "addr:city": null, "source": null, "name:be": "Слаўнае", "name:ru": "Славное", "osm_id": 306066842, "osm_type": "nodes" }, "geometry": { "type": "Point", "coordinates": [ 29.4462219, 54.3083904 ] } },
{ "type": "Feature", "properties": { "name": "Язвіна", "name:en": null, "railway": "station", "ele": null, "operator:type": null, "layer": null, "addr:full": null, "addr:city": null, "source": null, "name:be": "Язвіна", "name:ru": "Язвино", "osm_id": 306066884, "osm_type": "nodes" }, "geometry": { "type": "Point", "coordinates": [ 29.7610814, 55.2638046 ] } },
{ "type": "Feature", "properties": { "name": "Раслякі", "name:en": null, "railway": "station", "ele": null, "operator:type": null, "layer": null, "addr:full": null, "addr:city": null, "source": null, "name:be": "Раслякі", "name:ru": "Росляки", "osm_id": 306066935, "osm_type": "nodes" }, "geometry": { "type": "Point", "coordinates": [ 29.9398844, 55.5850588 ] } },
{ "type": "Feature", "properties": { "name": "Ксты", "name:en": null, "railway": "station", "ele": null, "operator:type": null, "layer": null, "addr:full": null, "addr:city": null, "source": null, "name:be": "Ксты", "name:ru": "Ксты", "osm_id": 306067256, "osm_type": "nodes" }, "geometry": { "type": "Point", "coordinates": [ 28.7208092, 55.4538462 ] } },
{ "type": "Feature", "properties": { "name": "Мінойты", "name:en": null, "railway": "station", "ele": null, "operator:type": null, "layer": null, "addr:full": null, "addr:city": null, "source": null, "name:be": "Мінойты", "name:ru": "Минойты", "osm_id": 306067377, "osm_type": "nodes" }, "geometry": { "type": "Point", "coordinates": [ 25.3623975, 53.7920681 ] } },
{ "type": "Feature", "properties": { "name": "Гаўя", "name:en": null, "railway": "station", "ele": null, "operator:type": null, "layer": null, "addr:full": null, "addr:city": null, "source": null, "name:be": "Гаўя", "name:ru": "Гавья", "osm_id": 306067499, "osm_type": "nodes" }, "geometry": { "type": "Point", "coordinates": [ 25.652398, 53.9782661 ] } },
{ "type": "Feature", "properties": { "name": "Азярніца", "name:en": null, "railway": "station", "ele": null, "operator:type": null, "layer": null, "addr:full": null, "addr:city": null, "source": null, "name:be": "Азярніца", "name:ru": "Озерница", "osm_id": 306067553, "osm_type": "nodes" }, "geometry": { "type": "Point", "coordinates": [ 25.0321167, 53.084033 ] } },
{ "type": "Feature", "properties": { "name": "Ваўкавыск-Цэнтральны", "name:en": null, "railway": "station", "ele": null, "operator:type": null, "layer": null, "addr:full": null, "addr:city": null, "source": null, "name:be": "Ваўкавыск-Цэнтральны", "name:ru": "Волковыск-Центральный", "osm_id": 306067790, "osm_type": "nodes" }, "geometry": { "type": "Point", "coordinates": [ 24.4138501, 53.1385203 ] } },
{ "type": "Feature", "properties": { "name": "Кругавец", "name:en": null, "railway": "station", "ele": null, "operator:type": null, "layer": null, "addr:full": null, "addr:city": null, "source": null, "name:be": "Кругавец", "name:ru": "Круговец", "osm_id": 306067987, "osm_type": "nodes" }, "geometry": { "type": "Point", "coordinates": [ 31.6892142, 52.1706308 ] } },
{ "type": "Feature", "properties": { "name": "Церахоўка", "name:en": null, "railway": "station", "ele": null, "operator:type": null, "layer": null, "addr:full": null, "addr:city": null, "source": null, "name:be": "Церахоўка", "name:ru": "Тереховка", "osm_id": 306067996, "osm_type": "nodes" }, "geometry": { "type": "Point", "coordinates": [ 31.4175813, 52.2099082 ] } },
{ "type": "Feature", "properties": { "name": "Гутна", "name:en": null, "railway": "station", "ele": null, "operator:type": null, "layer": null, "addr:full": null, "addr:city": null, "source": null, "name:be": "Гутна", "name:ru": "Гутно", "osm_id": 306067375, "osm_type": "nodes" }, "geometry": { "type": "Point", "coordinates": [ 25.3649248, 53.9174365 ] } },
{ "type": "Feature", "properties": { "name": "Бастуны", "name:en": null, "railway": "station", "ele": null, "operator:type": null, "layer": null, "addr:full": null, "addr:city": null, "source": null, "name:be": "Бастуны", "name:ru": "Бастуны", "osm_id": 306067423, "osm_type": "nodes" }, "geometry": { "type": "Point", "coordinates": [ 25.2937648, 54.0783835 ] } },
{ "type": "Feature", "properties": { "name": "Выгада", "name:en": null, "railway": "station", "ele": null, "operator:type": null, "layer": null, "addr:full": null, "addr:city": null, "source": null, "name:be": "Выгада", "name:ru": "Выгода", "osm_id": 306067476, "osm_type": "nodes" }, "geometry": { "type": "Point", "coordinates": [ 25.5998552, 53.3512301 ] } },
{ "type": "Feature", "properties": { "name": "Наваельня", "name:en": null, "railway": "station", "ele": null, "operator:type": null, "layer": null, "addr:full": null, "addr:city": null, "source": null, "name:be": "Наваельня", "name:ru": "Новоельня", "osm_id": 306067480, "osm_type": "nodes" }, "geometry": { "type": "Point", "coordinates": [ 25.5865558, 53.4639349 ] } },
{ "type": "Feature", "properties": { "name": "Гуды", "name:en": null, "railway": "station", "ele": null, "operator:type": null, "layer": null, "addr:full": null, "addr:city": null, "source": null, "name:be": "Гуды", "name:ru": "Гуды", "osm_id": 306067663, "osm_type": "nodes" }, "geometry": { "type": "Point", "coordinates": [ 25.2653804, 53.9583248 ] } },
{ "type": "Feature", "properties": { "name": "Ліда", "name:en": null, "railway": "station", "ele": null, "operator:type": null, "layer": null, "addr:full": null, "addr:city": null, "source": null, "name:be": "Ліда", "name:ru": "Лида", "osm_id": 306067705, "osm_type": "nodes" }, "geometry": { "type": "Point", "coordinates": [ 25.2951169, 53.8811516 ] } },
{ "type": "Feature", "properties": { "name": "Андрэевічы", "name:en": null, "railway": "station", "ele": null, "operator:type": null, "layer": null, "addr:full": null, "addr:city": null, "source": null, "name:be": "Андрэевічы", "name:ru": "Андреевичи", "osm_id": 306067740, "osm_type": "nodes" }, "geometry": { "type": "Point", "coordinates": [ 24.3003101, 53.1114136 ] } },
{ "type": "Feature", "properties": { "name": "Зэльва", "name:en": null, "railway": "station", "ele": null, "operator:type": null, "layer": null, "addr:full": null, "addr:city": null, "source": null, "name:be": "Зэльва", "name:ru": "Зельва", "osm_id": 306067852, "osm_type": "nodes" }, "geometry": { "type": "Point", "coordinates": [ 24.799002, 53.1619987 ] } },
{ "type": "Feature", "properties": { "name": "Прыяміна", "name:en": null, "railway": "station", "ele": null, "operator:type": null, "layer": null, "addr:full": null, "addr:city": null, "source": null, "name:be": "Прыяміна", "name:ru": "Приямино", "osm_id": 306067951, "osm_type": "nodes" }, "geometry": { "type": "Point", "coordinates": [ 28.837702, 54.2763842 ] } },
{ "type": "Feature", "properties": { "name": "Закапыцце", "name:en": null, "railway": "station", "ele": null, "operator:type": null, "layer": null, "addr:full": null, "addr:city": null, "source": null, "name:be": "Закапыцце", "name:ru": "Закопытье", "osm_id": 306067993, "osm_type": "nodes" }, "geometry": { "type": "Point", "coordinates": [ 31.4779079, 52.4335183 ] } },
{ "type": "Feature", "properties": { "name": "Іпуць", "name:en": null, "railway": "station", "ele": null, "operator:type": null, "layer": null, "addr:full": null, "addr:city": null, "source": null, "name:be": "Іпуць", "name:ru": "Ипуть", "osm_id": 306068039, "osm_type": "nodes" }, "geometry": { "type": "Point", "coordinates": [ 31.089863, 52.4040801 ] } },
{ "type": "Feature", "properties": { "name": "Ларышчава", "name:en": null, "railway": "station", "ele": null, "operator:type": null, "layer": null, "addr:full": null, "addr:city": null, "source": null, "name:be": "Ларышчава", "name:ru": "Ларищево", "osm_id": 306068045, "osm_type": "nodes" }, "geometry": { "type": "Point", "coordinates": [ 31.1681472, 52.3892028 ] } },
{ "type": "Feature", "properties": { "name": "Зябраўка", "name:en": null, "railway": "station", "ele": null, "operator:type": null, "layer": null, "addr:full": null, "addr:city": null, "source": null, "name:be": "Зябраўка", "name:ru": "Зябровка", "osm_id": 306068080, "osm_type": "nodes" }, "geometry": { "type": "Point", "coordinates": [ 31.2103012, 52.3080529 ] } },
{ "type": "Feature", "properties": { "name": "Гомель-Паўночны", "name:en": null, "railway": "station", "ele": null, "operator:type": null, "layer": null, "addr:full": null, "addr:city": null, "source": null, "name:be": "Гомель-Паўночны", "name:ru": "Гомель-Северный", "osm_id": 306068321, "osm_type": "nodes" }, "geometry": { "type": "Point", "coordinates": [ 30.9451003, 52.4563244 ] } },
{ "type": "Feature", "properties": { "name": "Ходасы", "name:en": null, "railway": "station", "ele": null, "operator:type": null, "layer": null, "addr:full": null, "addr:city": null, "source": null, "name:be": "Ходасы", "name:ru": "Ходосы", "osm_id": 306068366, "osm_type": "nodes" }, "geometry": { "type": "Point", "coordinates": [ 31.4812434, 53.9284186 ] } },
{ "type": "Feature", "properties": { "name": "Бялынкавічы", "name:en": null, "railway": "station", "ele": null, "operator:type": null, "layer": null, "addr:full": null, "addr:city": null, "source": null, "name:be": "Бялынкавічы", "name:ru": "Белынковичи", "osm_id": 306068419, "osm_type": "nodes" }, "geometry": { "type": "Point", "coordinates": [ 32.1614714, 53.2331728 ] } },
{ "type": "Feature", "properties": { "name": "Шасцёраўка", "name:en": null, "railway": "station", "ele": null, "operator:type": null, "layer": null, "addr:full": null, "addr:city": null, "source": null, "name:be": "Шасцёраўка", "name:ru": "Шестёровка", "osm_id": 306068429, "osm_type": "nodes" }, "geometry": { "type": "Point", "coordinates": [ 32.1571068, 53.7224028 ] } },
{ "type": "Feature", "properties": { "name": "Чавусы", "name:en": null, "railway": "station", "ele": null, "operator:type": null, "layer": null, "addr:full": null, "addr:city": null, "source": null, "name:be": "Чавусы", "name:ru": "Чаусы", "osm_id": 306068430, "osm_type": "nodes" }, "geometry": { "type": "Point", "coordinates": [ 30.9280372, 53.7812923 ] } },
{ "type": "Feature", "properties": { "name": "Пагодзіна", "name:en": "Pogodino", "railway": "station", "ele": null, "operator:type": null, "layer": null, "addr:full": null, "addr:city": null, "source": null, "name:be": "Пагодзіна", "name:ru": "Погодино", "osm_id": 306068451, "osm_type": "nodes" }, "geometry": { "type": "Point", "coordinates": [ 30.9899653, 54.264066 ] } },
{ "type": "Feature", "properties": { "name": "Верамейкі", "name:en": null, "railway": "station", "ele": null, "operator:type": null, "layer": null, "addr:full": null, "addr:city": null, "source": null, "name:be": "Верамейкі", "name:ru": "Веремейки", "osm_id": 306068461, "osm_type": "nodes" }, "geometry": { "type": "Point", "coordinates": [ 31.2761336, 53.7624928 ] } },
{ "type": "Feature", "properties": { "name": "Чарназёмаўка", "name:en": null, "railway": "station", "ele": null, "operator:type": null, "layer": null, "addr:full": null, "addr:city": null, "source": null, "name:be": "Чарназёмаўка", "name:ru": "Чернозёмовка", "osm_id": 306068478, "osm_type": "nodes" }, "geometry": { "type": "Point", "coordinates": [ 30.2130719, 53.7950837 ] } },
{ "type": "Feature", "properties": { "name": "Галынец", "name:en": null, "railway": "station", "ele": null, "operator:type": null, "layer": null, "addr:full": null, "addr:city": null, "source": null, "name:be": "Галынец", "name:ru": "Голынец", "osm_id": 306068482, "osm_type": "nodes" }, "geometry": { "type": "Point", "coordinates": [ 30.1619806, 53.8489587 ] } },
{ "type": "Feature", "properties": { "name": "Дашкаўка", "name:en": null, "railway": "station", "ele": null, "operator:type": null, "layer": null, "addr:full": null, "addr:city": null, "source": null, "name:be": "Дашкаўка", "name:ru": "Дашковка", "osm_id": 306068493, "osm_type": "nodes" }, "geometry": { "type": "Point", "coordinates": [ 30.2406544, 53.7474205 ] } },
{ "type": "Feature", "properties": { "name": "Барсукі", "name:en": null, "railway": "station", "ele": null, "operator:type": null, "layer": null, "addr:full": null, "addr:city": null, "source": null, "name:be": "Барсукі", "name:ru": "Барсуки", "osm_id": 306068694, "osm_type": "nodes" }, "geometry": { "type": "Point", "coordinates": [ 30.2611284, 53.6613711 ] } },
{ "type": "Feature", "properties": { "name": "Гудагай", "name:en": null, "railway": "station", "ele": null, "operator:type": null, "layer": null, "addr:full": null, "addr:city": null, "source": null, "name:be": "Гудагай", "name:ru": "Гудогай", "osm_id": 306068713, "osm_type": "nodes" }, "geometry": { "type": "Point", "coordinates": [ 25.8927469, 54.5966739 ] } },
{ "type": "Feature", "properties": { "name": "Коржаўка", "name:en": null, "railway": "station", "ele": null, "operator:type": null, "layer": null, "addr:full": null, "addr:city": null, "source": null, "name:be": "Коржаўка", "name:ru": "Коржевка", "osm_id": 306068912, "osm_type": "nodes" }, "geometry": { "type": "Point", "coordinates": [ 28.6475113, 52.2053757 ] } },
{ "type": "Feature", "properties": { "name": "Юхнавічы", "name:en": null, "railway": "station", "ele": null, "operator:type": null, "layer": null, "addr:full": null, "addr:city": null, "source": null, "name:be": "Юхнавічы", "name:ru": "Юхновичи", "osm_id": 306069153, "osm_type": "nodes" }, "geometry": { "type": "Point", "coordinates": [ 25.7299824, 52.1216257 ] } },
{ "type": "Feature", "properties": { "name": "Лазурная", "name:en": null, "railway": "station", "ele": null, "operator:type": null, "layer": null, "addr:full": null, "addr:city": null, "source": null, "name:be": "Лазурная", "name:ru": "Лазурная", "osm_id": 306068334, "osm_type": "nodes" }, "geometry": { "type": "Point", "coordinates": [ 30.8791469, 52.5718378 ] } },
{ "type": "Feature", "properties": { "name": "Цёмны Лес", "name:en": null, "railway": "station", "ele": null, "operator:type": null, "layer": null, "addr:full": null, "addr:city": null, "source": null, "name:be": "Цёмны Лес", "name:ru": "Тёмный Лес", "osm_id": 306068455, "osm_type": "nodes" }, "geometry": { "type": "Point", "coordinates": [ 31.2426895, 54.097112 ] } },
{ "type": "Feature", "properties": { "name": "Асавец", "name:en": null, "railway": "station", "ele": null, "operator:type": null, "layer": null, "addr:full": null, "addr:city": null, "source": null, "name:be": "Асавец", "name:ru": "Осовец", "osm_id": 306068471, "osm_type": "nodes" }, "geometry": { "type": "Point", "coordinates": [ 31.4410016, 53.755432 ] } },
{ "type": "Feature", "properties": { "name": "Буйнічы", "name:en": null, "railway": "station", "ele": null, "operator:type": null, "layer": null, "addr:full": null, "addr:city": null, "source": null, "name:be": "Буйнічы", "name:ru": "Буйничи", "osm_id": 306068488, "osm_type": "nodes" }, "geometry": { "type": "Point", "coordinates": [ 30.2487134, 53.8685739 ] } },
{ "type": "Feature", "properties": { "name": "Магілёў 3", "name:en": null, "railway": "station", "ele": null, "operator:type": null, "layer": null, "addr:full": null, "addr:city": null, "source": null, "name:be": "Магілёў 3", "name:ru": "Могилёв-3", "osm_id": 306068522, "osm_type": "nodes" }, "geometry": { "type": "Point", "coordinates": [ 30.3560834, 53.9195412 ] } },
{ "type": "Feature", "properties": { "name": "Рэста", "name:en": null, "railway": "station", "ele": null, "operator:type": null, "layer": null, "addr:full": null, "addr:city": null, "source": null, "name:be": "Рэста", "name:ru": "Реста", "osm_id": 306068577, "osm_type": "nodes" }, "geometry": { "type": "Point", "coordinates": [ 30.6875926, 53.8242424 ] } },
{ "type": "Feature", "properties": { "name": "Лудчыцы", "name:en": null, "railway": "station", "ele": null, "operator:type": null, "layer": null, "addr:full": null, "addr:city": null, "source": null, "name:be": "Лудчыцы", "name:ru": "Лудчицы", "osm_id": 306068683, "osm_type": "nodes" }, "geometry": { "type": "Point", "coordinates": [ 30.1634276, 53.4052091 ] } },
{ "type": "Feature", "properties": { "name": "Рыжкавічы", "name:en": null, "railway": "station", "ele": null, "operator:type": null, "layer": null, "addr:full": null, "addr:city": null, "source": null, "name:be": "Рыжкавічы", "name:ru": "Рыжковичи", "osm_id": 306068731, "osm_type": "nodes" }, "geometry": { "type": "Point", "coordinates": [ 30.2922893, 54.1577358 ] } },
{ "type": "Feature", "properties": { "name": "Старушкі", "name:en": null, "railway": "station", "ele": null, "operator:type": null, "layer": null, "addr:full": null, "addr:city": null, "source": null, "name:be": "Старушкі", "name:ru": "Старушки", "osm_id": 306068790, "osm_type": "nodes" }, "geometry": { "type": "Point", "coordinates": [ 28.1383855, 52.2538978 ] } },
{ "type": "Feature", "properties": { "name": "Муляраўка", "name:en": null, "railway": "station", "ele": null, "operator:type": null, "layer": null, "addr:full": null, "addr:city": null, "source": null, "name:be": "Муляраўка", "name:ru": "Муляровка", "osm_id": 306068796, "osm_type": "nodes" }, "geometry": { "type": "Point", "coordinates": [ 28.5620693, 52.2077052 ] } },
{ "type": "Feature", "properties": { "name": "Гарадзец", "name:en": null, "railway": "station", "ele": null, "operator:type": null, "layer": null, "addr:full": null, "addr:city": null, "source": null, "name:be": "Гарадзец", "name:ru": "Городец", "osm_id": 306068862, "osm_type": "nodes" }, "geometry": { "type": "Point", "coordinates": [ 24.6919598, 52.1960194 ] } },
{ "type": "Feature", "properties": { "name": "Мышанка", "name:en": null, "railway": "station", "ele": null, "operator:type": null, "layer": null, "addr:full": null, "addr:city": null, "source": null, "name:be": "Мышанка", "name:ru": "Мышанка", "osm_id": 306068928, "osm_type": "nodes" }, "geometry": { "type": "Point", "coordinates": [ 28.9506143, 52.1751551 ] } },
{ "type": "Feature", "properties": { "name": "Белаазёрск", "name:en": null, "railway": "station", "ele": null, "operator:type": null, "layer": null, "addr:full": null, "addr:city": null, "source": null, "name:be": "Белаазёрск", "name:ru": "Белоозёрск", "osm_id": 306068966, "osm_type": "nodes" }, "geometry": { "type": "Point", "coordinates": [ 25.187084, 52.4667242 ] } },
{ "type": "Feature", "properties": { "name": "Палонка", "name:en": null, "railway": "station", "ele": null, "operator:type": null, "layer": null, "addr:full": null, "addr:city": null, "source": null, "name:be": "Палонка", "name:ru": "Полонка", "osm_id": 306069178, "osm_type": "nodes" }, "geometry": { "type": "Point", "coordinates": [ 25.7284598, 53.1209565 ] } },
{ "type": "Feature", "properties": { "name": "Міцкевічы", "name:en": null, "railway": "station", "ele": null, "operator:type": null, "layer": null, "addr:full": null, "addr:city": null, "source": null, "name:be": "Міцкевічы", "name:ru": "Мицкевичи", "osm_id": 306069184, "osm_type": "nodes" }, "geometry": { "type": "Point", "coordinates": [ 25.7512696, 53.2975399 ] } },
{ "type": "Feature", "properties": { "name": "Мордзічы", "name:en": null, "railway": "station", "ele": null, "operator:type": null, "layer": null, "addr:full": null, "addr:city": null, "source": null, "name:be": "Мордзічы", "name:ru": "Мордичи", "osm_id": 306069225, "osm_type": "nodes" }, "geometry": { "type": "Point", "coordinates": [ 25.8178965, 53.26789 ] } },
{ "type": "Feature", "properties": { "name": "Лупалава", "name:en": null, "railway": "station", "ele": null, "operator:type": null, "layer": null, "addr:full": null, "addr:city": null, "source": null, "name:be": "Лупалава", "name:ru": "Луполово", "osm_id": 306068527, "osm_type": "nodes" }, "geometry": { "type": "Point", "coordinates": [ 30.4028575, 53.8771537 ] } },
{ "type": "Feature", "properties": { "name": "Тошчыца", "name:en": null, "railway": "station", "ele": null, "operator:type": null, "layer": null, "addr:full": null, "addr:city": null, "source": null, "name:be": "Тошчыца", "name:ru": "Тощица", "osm_id": 306068656, "osm_type": "nodes" }, "geometry": { "type": "Point", "coordinates": [ 30.128409, 53.3048355 ] } },
{ "type": "Feature", "properties": { "name": "Капцэвічы", "name:en": null, "railway": "station", "ele": null, "operator:type": null, "layer": null, "addr:full": null, "addr:city": null, "source": null, "name:be": "Капцэвічы", "name:ru": "Копцевичи", "osm_id": 306068782, "osm_type": "nodes" }, "geometry": { "type": "Point", "coordinates": [ 28.3156718, 52.2282399 ] } },
{ "type": "Feature", "properties": { "name": "Астанкавічы", "name:en": null, "railway": "station", "ele": null, "operator:type": null, "layer": null, "addr:full": null, "addr:city": null, "source": null, "name:be": "Астанкавічы", "name:ru": "Останковичи", "osm_id": 306068905, "osm_type": "nodes" }, "geometry": { "type": "Point", "coordinates": [ 29.5408753, 52.4685419 ] } },
{ "type": "Feature", "properties": { "name": "Дамашэвічы", "name:en": null, "railway": "station", "ele": null, "operator:type": null, "layer": null, "addr:full": null, "addr:city": null, "source": null, "name:be": "Дамашэвічы", "name:ru": "Домашевичи", "osm_id": 306069237, "osm_type": "nodes" }, "geometry": { "type": "Point", "coordinates": [ 25.9329633, 53.1923333 ] } },
{ "type": "Feature", "properties": { "name": "Прыбар", "name:en": null, "railway": "station", "ele": null, "operator:type": null, "layer": null, "addr:full": null, "addr:city": null, "source": null, "name:be": "Прыбар", "name:ru": "Прибор", "osm_id": 306069401, "osm_type": "nodes" }, "geometry": { "type": "Point", "coordinates": [ 30.7578841, 52.3999122 ] } },
{ "type": "Feature", "properties": { "name": "Уза", "name:en": null, "railway": "station", "ele": null, "operator:type": null, "layer": null, "addr:full": null, "addr:city": null, "source": null, "name:be": "Уза", "name:ru": "Уза", "osm_id": 306069427, "osm_type": "nodes" }, "geometry": { "type": "Point", "coordinates": [ 30.8159044, 52.598225 ] } },
{ "type": "Feature", "properties": { "name": "Буда-Кашалёўская", "name:en": null, "railway": "station", "ele": null, "operator:type": null, "layer": null, "addr:full": null, "addr:city": null, "source": null, "name:be": "Буда-Кашалёўская", "name:ru": "Буда-Кошелёвская", "osm_id": 306069529, "osm_type": "nodes" }, "geometry": { "type": "Point", "coordinates": [ 30.5674242, 52.7128702 ] } },
{ "type": "Feature", "properties": { "name": "Парахонск", "name:en": null, "railway": "station", "ele": null, "operator:type": null, "layer": null, "addr:full": null, "addr:city": null, "source": null, "name:be": "Парахонск", "name:ru": "Парохонск", "osm_id": 306069552, "osm_type": "nodes" }, "geometry": { "type": "Point", "coordinates": [ 26.4098091, 52.2480122 ] } },
{ "type": "Feature", "properties": { "name": "Ганцавічы", "name:en": null, "railway": "station", "ele": null, "operator:type": null, "layer": null, "addr:full": null, "addr:city": null, "source": null, "name:be": "Ганцавічы", "name:ru": "Ганцевичи", "osm_id": 306069663, "osm_type": "nodes" }, "geometry": { "type": "Point", "coordinates": [ 26.4349011, 52.7585667 ] } },
{ "type": "Feature", "properties": { "name": "Салтанаўка", "name:en": null, "railway": "station", "ele": null, "operator:type": null, "layer": null, "addr:full": null, "addr:city": null, "source": null, "name:be": "Салтанаўка", "name:ru": "Салтановка", "osm_id": 306069782, "osm_type": "nodes" }, "geometry": { "type": "Point", "coordinates": [ 30.3334296, 52.8176299 ] } },
{ "type": "Feature", "properties": { "name": "Яшчыцы", "name:en": null, "railway": "station", "ele": null, "operator:type": null, "layer": null, "addr:full": null, "addr:city": null, "source": null, "name:be": "Яшчыцы", "name:ru": "Ящицы", "osm_id": 306069807, "osm_type": "nodes" }, "geometry": { "type": "Point", "coordinates": [ 29.8183957, 52.7233191 ] } },
{ "type": "Feature", "properties": { "name": "Лахва", "name:en": null, "railway": "station", "ele": null, "operator:type": null, "layer": null, "addr:full": null, "addr:city": null, "source": null, "name:be": "Лахва", "name:ru": "Лахва", "osm_id": 306069883, "osm_type": "nodes" }, "geometry": { "type": "Point", "coordinates": [ 27.0790237, 52.2231042 ] } },
{ "type": "Feature", "properties": { "name": "Райтанаў", "name:en": null, "railway": "station", "ele": null, "operator:type": null, "layer": null, "addr:full": null, "addr:city": null, "source": null, "name:be": "Райтанаў", "name:ru": "Рейтанов", "osm_id": 306069601, "osm_type": "nodes" }, "geometry": { "type": "Point", "coordinates": [ 26.3072685, 52.9795604 ] } },
{ "type": "Feature", "properties": { "name": "Люшча", "name:en": null, "railway": "station", "ele": null, "operator:type": null, "layer": null, "addr:full": null, "addr:city": null, "source": null, "name:be": "Люшча", "name:ru": "Люща", "osm_id": 306069630, "osm_type": "nodes" }, "geometry": { "type": "Point", "coordinates": [ 26.7103619, 52.448872 ] } },
{ "type": "Feature", "properties": { "name": "Лоўча", "name:en": null, "railway": "station", "ele": null, "operator:type": null, "layer": null, "addr:full": null, "addr:city": null, "source": null, "name:be": "Лоўча", "name:ru": "Ловча", "osm_id": 306069643, "osm_type": "nodes" }, "geometry": { "type": "Point", "coordinates": [ 26.617672, 52.2966087 ] } },
{ "type": "Feature", "properties": { "name": "Старасельскі", "name:en": null, "railway": "station", "ele": null, "operator:type": null, "layer": null, "addr:full": null, "addr:city": null, "source": null, "name:be": "Старасельскі", "name:ru": "Старосельский", "osm_id": 306069862, "osm_type": "nodes" }, "geometry": { "type": "Point", "coordinates": [ 30.092973, 53.1990655 ] } },
{ "type": "Feature", "properties": { "name": "Мікашэвічы", "name:en": null, "railway": "station", "ele": null, "operator:type": null, "layer": null, "addr:full": null, "addr:city": null, "source": null, "name:be": "Мікашэвічы", "name:ru": "Микашевичи", "osm_id": 306069905, "osm_type": "nodes" }, "geometry": { "type": "Point", "coordinates": [ 27.4734529, 52.215002 ] } },
{ "type": "Feature", "properties": { "name": "Міханавічы", "name:en": null, "railway": "station", "ele": null, "operator:type": null, "layer": null, "addr:full": null, "addr:city": null, "source": null, "name:be": "Міханавічы", "name:ru": "Михановичи", "osm_id": 442976095, "osm_type": "nodes" }, "geometry": { "type": "Point", "coordinates": [ 27.688072, 53.7461263 ] } },
{ "type": "Feature", "properties": { "name": "Слонім", "name:en": null, "railway": "station", "ele": null, "operator:type": null, "layer": null, "addr:full": null, "addr:city": null, "source": null, "name:be": "Слонім", "name:ru": "Слоним", "osm_id": 443932648, "osm_type": "nodes" }, "geometry": { "type": "Point", "coordinates": [ 25.3435357, 53.0952528 ] } },
{ "type": "Feature", "properties": { "name": "Радашковічы", "name:en": null, "railway": "station", "ele": null, "operator:type": null, "layer": null, "addr:full": null, "addr:city": null, "source": null, "name:be": "Радашковічы", "name:ru": "Радошковичи", "osm_id": 469858489, "osm_type": "nodes" }, "geometry": { "type": "Point", "coordinates": [ 27.2127575, 54.0695277 ] } },
{ "type": "Feature", "properties": { "name": "Кобрын", "name:en": null, "railway": "station", "ele": null, "operator:type": null, "layer": null, "addr:full": null, "addr:city": null, "source": null, "name:be": "Кобрын", "name:ru": "Кобрин", "osm_id": 476416018, "osm_type": "nodes" }, "geometry": { "type": "Point", "coordinates": [ 24.3455273, 52.2236546 ] } },
{ "type": "Feature", "properties": { "name": "Салігорск", "name:en": null, "railway": "station", "ele": null, "operator:type": null, "layer": null, "addr:full": null, "addr:city": null, "source": null, "name:be": "Салігорск", "name:ru": "Солигорск", "osm_id": 492268069, "osm_type": "nodes" }, "geometry": { "type": "Point", "coordinates": [ 27.5451471, 52.7931801 ] } },
{ "type": "Feature", "properties": { "name": "Рапнянская", "name:en": null, "railway": "station", "ele": null, "operator:type": null, "layer": null, "addr:full": null, "addr:city": null, "source": null, "name:be": "Рапнянская", "name:ru": "Ропнянская", "osm_id": 507064785, "osm_type": "nodes" }, "geometry": { "type": "Point", "coordinates": [ 28.6748836, 55.5427161 ] } },
{ "type": "Feature", "properties": { "name": "Пухавічы", "name:en": "Pukhovichi", "railway": "station", "ele": null, "operator:type": null, "layer": null, "addr:full": null, "addr:city": null, "source": null, "name:be": "Пухавічы", "name:ru": "Пуховичи", "osm_id": 661194084, "osm_type": "nodes" }, "geometry": { "type": "Point", "coordinates": [ 28.1427136, 53.5099818 ] } },
{ "type": "Feature", "properties": { "name": "Клінск", "name:en": null, "railway": "station", "ele": null, "operator:type": null, "layer": null, "addr:full": null, "addr:city": null, "source": null, "name:be": "Клінск", "name:ru": "Клинск", "osm_id": 674417813, "osm_type": "nodes" }, "geometry": { "type": "Point", "coordinates": [ 29.1457577, 52.1469255 ] } },
{ "type": "Feature", "properties": { "name": "Ражанка", "name:en": null, "railway": "station", "ele": null, "operator:type": null, "layer": null, "addr:full": null, "addr:city": null, "source": null, "name:be": "Ражанка", "name:ru": "Рожанка", "osm_id": 706146845, "osm_type": "nodes" }, "geometry": { "type": "Point", "coordinates": [ 24.7896242, 53.5581698 ] } },
{ "type": "Feature", "properties": { "name": "Пінск", "name:en": null, "railway": "station", "ele": null, "operator:type": null, "layer": null, "addr:full": null, "addr:city": null, "source": null, "name:be": "Пінск", "name:ru": "Пинск", "osm_id": 460411021, "osm_type": "nodes" }, "geometry": { "type": "Point", "coordinates": [ 26.0890536, 52.122224 ] } },
{ "type": "Feature", "properties": { "name": "Рагачоў", "name:en": null, "railway": "station", "ele": null, "operator:type": null, "layer": null, "addr:full": null, "addr:city": null, "source": null, "name:be": "Рагачоў", "name:ru": "Рогачёв", "osm_id": 588647021, "osm_type": "nodes" }, "geometry": { "type": "Point", "coordinates": [ 30.0508451, 53.0934587 ] } },
{ "type": "Feature", "properties": { "name": "Калій 1", "name:en": null, "railway": "station", "ele": null, "operator:type": null, "layer": null, "addr:full": null, "addr:city": null, "source": null, "name:be": "Калій 1", "name:ru": "Калий-1", "osm_id": 592058785, "osm_type": "nodes" }, "geometry": { "type": "Point", "coordinates": [ 27.5861836, 52.825951 ] } },
{ "type": "Feature", "properties": { "name": "Калій 3", "name:en": null, "railway": "station", "ele": null, "operator:type": null, "layer": null, "addr:full": null, "addr:city": null, "source": null, "name:be": "Калій 3", "name:ru": "Калий-3", "osm_id": 592058792, "osm_type": "nodes" }, "geometry": { "type": "Point", "coordinates": [ 27.5776183, 52.8661821 ] } },
{ "type": "Feature", "properties": { "name": "Сеназавод", "name:en": null, "railway": "station", "ele": null, "operator:type": null, "layer": null, "addr:full": null, "addr:city": null, "source": null, "name:be": "Сеназавод", "name:ru": "Сенозавод", "osm_id": 677383492, "osm_type": "nodes" }, "geometry": { "type": "Point", "coordinates": [ 30.4791939, 52.3730658 ] } },
{ "type": "Feature", "properties": { "name": "Масты", "name:en": null, "railway": "station", "ele": null, "operator:type": null, "layer": null, "addr:full": null, "addr:city": null, "source": null, "name:be": "Масты", "name:ru": "Мосты", "osm_id": 706177354, "osm_type": "nodes" }, "geometry": { "type": "Point", "coordinates": [ 24.5420979, 53.4287547 ] } },
{ "type": "Feature", "properties": { "name": "Драгічын", "name:en": null, "railway": "station", "ele": null, "operator:type": null, "layer": null, "addr:full": null, "addr:city": null, "source": null, "name:be": "Драгічын", "name:ru": "Дрогичин", "osm_id": 833762334, "osm_type": "nodes" }, "geometry": { "type": "Point", "coordinates": [ 25.0522051, 52.1820308 ] } },
{ "type": "Feature", "properties": { "name": "Клімавічы", "name:en": null, "railway": "station", "ele": null, "operator:type": null, "layer": null, "addr:full": null, "addr:city": null, "source": null, "name:be": "Клімавічы", "name:ru": "Климовичи", "osm_id": 882188218, "osm_type": "nodes" }, "geometry": { "type": "Point", "coordinates": [ 31.9241193, 53.6076759 ] } },
{ "type": "Feature", "properties": { "name": "Брэст-Палескі", "name:en": null, "railway": "station", "ele": null, "operator:type": null, "layer": null, "addr:full": null, "addr:city": null, "source": null, "name:be": "Брэст-Палескі", "name:ru": "Брест-Полесский", "osm_id": 908349181, "osm_type": "nodes" }, "geometry": { "type": "Point", "coordinates": [ 23.7105017, 52.0945877 ] } },
{ "type": "Feature", "properties": { "name": "Смальяны", "name:en": null, "railway": "station", "ele": null, "operator:type": null, "layer": null, "addr:full": null, "addr:city": null, "source": null, "name:be": "Смальяны", "name:ru": "Смольяны", "osm_id": 919482139, "osm_type": "nodes" }, "geometry": { "type": "Point", "coordinates": [ 30.1552547, 54.6285085 ] } },
{ "type": "Feature", "properties": { "name": "Чашнікі", "name:en": null, "railway": "station", "ele": null, "operator:type": null, "layer": null, "addr:full": null, "addr:city": null, "source": null, "name:be": "Чашнікі", "name:ru": "Чашники", "osm_id": 938288304, "osm_type": "nodes" }, "geometry": { "type": "Point", "coordinates": [ 29.1406989, 54.8341021 ] } },
{ "type": "Feature", "properties": { "name": "Кульгаі", "name:en": null, "railway": "station", "ele": null, "operator:type": null, "layer": null, "addr:full": null, "addr:city": null, "source": null, "name:be": "Кульгаі", "name:ru": "Кульгаи", "osm_id": 1026471163, "osm_type": "nodes" }, "geometry": { "type": "Point", "coordinates": [ 28.2958936, 55.305103 ] } },
{ "type": "Feature", "properties": { "name": "Аляхновічы", "name:en": null, "railway": "station", "ele": null, "operator:type": null, "layer": null, "addr:full": null, "addr:city": null, "source": null, "name:be": "Аляхновічы", "name:ru": "Олехновичи", "osm_id": 1246572357, "osm_type": "nodes" }, "geometry": { "type": "Point", "coordinates": [ 27.0996366, 54.1492116 ] } },
{ "type": "Feature", "properties": { "name": "Бурбін", "name:en": null, "railway": "station", "ele": null, "operator:type": null, "layer": null, "addr:full": null, "addr:city": null, "source": null, "name:be": "Бурбін", "name:ru": "Бурбин", "osm_id": 919480730, "osm_type": "nodes" }, "geometry": { "type": "Point", "coordinates": [ 29.64799, 54.7119892 ] } },
{ "type": "Feature", "properties": { "name": "Прокшына", "name:en": null, "railway": "station", "ele": null, "operator:type": null, "layer": null, "addr:full": null, "addr:city": null, "source": null, "name:be": "Прокшына", "name:ru": "Прокшино", "osm_id": 1019024490, "osm_type": "nodes" }, "geometry": { "type": "Point", "coordinates": [ 30.2896118, 54.3757517 ] } },
{ "type": "Feature", "properties": { "name": "Брэст-Цэнтральны", "name:en": "Brest Central", "railway": "station", "ele": null, "operator:type": null, "layer": null, "addr:full": null, "addr:city": null, "source": null, "name:be": "Брэст-Цэнтральны", "name:ru": "Брест-Центральный", "osm_id": 1034170744, "osm_type": "nodes" }, "geometry": { "type": "Point", "coordinates": [ 23.6804112, 52.1004334 ] } },
{ "type": "Feature", "properties": { "name": "Мормаль", "name:en": null, "railway": "station", "ele": null, "operator:type": null, "layer": null, "addr:full": null, "addr:city": null, "source": null, "name:be": "Мормаль", "name:ru": "Мормаль", "osm_id": 1055284264, "osm_type": "nodes" }, "geometry": { "type": "Point", "coordinates": [ 29.901325, 52.7812039 ] } },
{ "type": "Feature", "properties": { "name": "Ялізава", "name:en": null, "railway": "station", "ele": null, "operator:type": null, "layer": null, "addr:full": null, "addr:city": null, "source": null, "name:be": "Ялізава", "name:ru": "Елизово", "osm_id": 1145507838, "osm_type": "nodes" }, "geometry": { "type": "Point", "coordinates": [ 28.9917414, 53.4005672 ] } },
{ "type": "Feature", "properties": { "name": "Хойнікі", "name:en": null, "railway": "station", "ele": null, "operator:type": null, "layer": null, "addr:full": null, "addr:city": null, "source": null, "name:be": "Хойнікі", "name:ru": "Хойники", "osm_id": 1778401687, "osm_type": "nodes" }, "geometry": { "type": "Point", "coordinates": [ 30.0064561, 51.9184283 ] } },
{ "type": "Feature", "properties": { "name": "Лукскае", "name:en": null, "railway": "station", "ele": null, "operator:type": null, "layer": null, "addr:full": null, "addr:city": null, "source": null, "name:be": "Лукскае", "name:ru": "Лукское", "osm_id": 1843278290, "osm_type": "nodes" }, "geometry": { "type": "Point", "coordinates": [ 30.0052148, 52.9874013 ] } },
{ "type": "Feature", "properties": { "name": "Лемніца", "name:en": null, "railway": "station", "ele": null, "operator:type": null, "layer": null, "addr:full": null, "addr:city": null, "source": null, "name:be": "Лемніца", "name:ru": "Лемница", "osm_id": 1869771042, "osm_type": "nodes" }, "geometry": { "type": "Point", "coordinates": [ 29.8960465, 54.6392273 ] } },
{ "type": "Feature", "properties": { "name": "Глыбокае", "name:en": null, "railway": "station", "ele": null, "operator:type": null, "layer": null, "addr:full": null, "addr:city": null, "source": null, "name:be": "Глыбокае", "name:ru": "Глубокое", "osm_id": 1390888197, "osm_type": "nodes" }, "geometry": { "type": "Point", "coordinates": [ 27.6717746, 55.1328782 ] } },
{ "type": "Feature", "properties": { "name": "Чэрвіна", "name:en": null, "railway": "station", "ele": null, "operator:type": null, "layer": null, "addr:full": null, "addr:city": null, "source": null, "name:be": "Чэрвіна", "name:ru": "Червено", "osm_id": 1563473239, "osm_type": "nodes" }, "geometry": { "type": "Point", "coordinates": [ 30.3219706, 54.4450269 ] } },
{ "type": "Feature", "properties": { "name": "Гараны", "name:en": null, "railway": "station", "ele": null, "operator:type": null, "layer": null, "addr:full": null, "addr:city": null, "source": null, "name:be": "Гараны", "name:ru": "Горяны", "osm_id": 1565450555, "osm_type": "nodes" }, "geometry": { "type": "Point", "coordinates": [ 29.0342414, 55.4249573 ] } },
{ "type": "Feature", "properties": { "name": "Сосніца", "name:en": null, "railway": "station", "ele": null, "operator:type": null, "layer": null, "addr:full": null, "addr:city": null, "source": null, "name:be": "Сосніца", "name:ru": "Сосница", "osm_id": 1565450566, "osm_type": "nodes" }, "geometry": { "type": "Point", "coordinates": [ 28.8312774, 55.4804029 ] } },
{ "type": "Feature", "properties": { "name": "Баранавічы Паўночныя", "name:en": null, "railway": "station", "ele": null, "operator:type": null, "layer": null, "addr:full": null, "addr:city": null, "source": null, "name:be": "Баранавічы Паўночныя", "name:ru": "Барановичи-Северные", "osm_id": 1611719740, "osm_type": "nodes" }, "geometry": { "type": "Point", "coordinates": [ 26.0154351, 53.1539089 ] } },
{ "type": "Feature", "properties": { "name": "Старое Сяло", "name:en": null, "railway": "station", "ele": null, "operator:type": null, "layer": null, "addr:full": null, "addr:city": null, "source": null, "name:be": "Старое Сяло", "name:ru": "Старое Село", "osm_id": 1613920598, "osm_type": "nodes" }, "geometry": { "type": "Point", "coordinates": [ 29.8848811, 55.2278829 ] } },
{ "type": "Feature", "properties": { "name": "Адамова", "name:en": null, "railway": "station", "ele": null, "operator:type": null, "layer": null, "addr:full": null, "addr:city": null, "source": null, "name:be": "Адамова", "name:ru": "Адамово", "osm_id": 1632682369, "osm_type": "nodes" }, "geometry": { "type": "Point", "coordinates": [ 28.4692575, 55.6212459 ] } },
{ "type": "Feature", "properties": { "name": "Добруш", "name:en": null, "railway": "station", "ele": null, "operator:type": null, "layer": null, "addr:full": null, "addr:city": null, "source": null, "name:be": "Добруш", "name:ru": "Добруш", "osm_id": 1818291750, "osm_type": "nodes" }, "geometry": { "type": "Point", "coordinates": [ 31.3215463, 52.3993377 ] } },
{ "type": "Feature", "properties": { "name": "Дубравы", "name:en": null, "railway": "station", "ele": null, "operator:type": null, "layer": null, "addr:full": null, "addr:city": null, "source": null, "name:be": "Дубравы", "name:ru": "Дубравы", "osm_id": 1365140475, "osm_type": "nodes" }, "geometry": { "type": "Point", "coordinates": [ 27.1411847, 54.1073027 ] } },
{ "type": "Feature", "properties": { "name": "Мінск Паўночны", "name:en": null, "railway": "station", "ele": null, "operator:type": null, "layer": null, "addr:full": null, "addr:city": null, "source": null, "name:be": "Мінск Паўночны", "name:ru": "Минск-Северный", "osm_id": 1501889366, "osm_type": "nodes" }, "geometry": { "type": "Point", "coordinates": [ 27.526113, 53.905291 ] } },
{ "type": "Feature", "properties": { "name": "Руміна", "name:en": null, "railway": "station", "ele": null, "operator:type": null, "layer": null, "addr:full": null, "addr:city": null, "source": null, "name:be": "Руміна", "name:ru": "Румино", "osm_id": 1563490090, "osm_type": "nodes" }, "geometry": { "type": "Point", "coordinates": [ 30.4601097, 54.4402331 ] } },
{ "type": "Feature", "properties": { "name": "Лоўша", "name:en": null, "railway": "station", "ele": null, "operator:type": null, "layer": null, "addr:full": null, "addr:city": null, "source": null, "name:be": "Лоўша", "name:ru": "Ловша", "osm_id": 1613922636, "osm_type": "nodes" }, "geometry": { "type": "Point", "coordinates": [ 29.4490685, 55.3172299 ] } },
{ "type": "Feature", "properties": { "name": "Боркавічы", "name:en": null, "railway": "station", "ele": null, "operator:type": null, "layer": null, "addr:full": null, "addr:city": null, "source": null, "name:be": "Боркавічы", "name:ru": "Борковичи", "osm_id": 1632682372, "osm_type": "nodes" }, "geometry": { "type": "Point", "coordinates": [ 28.325982, 55.6703233 ] } },
{ "type": "Feature", "properties": { "name": "Прудок", "name:en": null, "railway": "station", "ele": null, "operator:type": null, "layer": null, "addr:full": null, "addr:city": null, "source": null, "name:be": "Прудок", "name:ru": "Прудок", "osm_id": 1840983830, "osm_type": "nodes" }, "geometry": { "type": "Point", "coordinates": [ 30.9965566, 52.4643739 ] } },
{ "type": "Feature", "properties": { "name": "Бараўцы", "name:en": null, "railway": "station", "ele": null, "operator:type": null, "layer": null, "addr:full": null, "addr:city": null, "source": null, "name:be": "Бараўцы", "name:ru": "Боровцы", "osm_id": 2060086365, "osm_type": "nodes" }, "geometry": { "type": "Point", "coordinates": [ 25.9384129, 53.1068974 ] } },
{ "type": "Feature", "properties": { "name": "Дрэтунь", "name:en": null, "railway": "station", "ele": null, "operator:type": null, "layer": null, "addr:full": null, "addr:city": null, "source": null, "name:be": "Дрэтунь", "name:ru": "Дретунь", "osm_id": 1967211275, "osm_type": "nodes" }, "geometry": { "type": "Point", "coordinates": [ 29.2142743, 55.6986931 ] } },
{ "type": "Feature", "properties": { "name": "Новалукомль", "name:en": null, "railway": "station", "ele": null, "operator:type": null, "layer": null, "addr:full": null, "addr:city": null, "source": null, "name:be": "Новалукомль", "name:ru": "Новолукомль", "osm_id": 2505260615, "osm_type": "nodes" }, "geometry": { "type": "Point", "coordinates": [ 29.1414341, 54.6780423 ] } },
{ "type": "Feature", "properties": { "name": "Славечна", "name:en": null, "railway": "station", "ele": null, "operator:type": null, "layer": null, "addr:full": null, "addr:city": null, "source": null, "name:be": "Славечна", "name:ru": "Словечно", "osm_id": 2015694062, "osm_type": "nodes" }, "geometry": { "type": "Point", "coordinates": [ 29.0668463, 51.631636 ] } },
{ "type": "Feature", "properties": { "name": "Дзегцяроўка", "name:en": null, "railway": "station", "ele": null, "operator:type": null, "layer": null, "addr:full": null, "addr:city": null, "source": null, "name:be": "Дзегцяроўка", "name:ru": "Дегтярёвка", "osm_id": 2316495221, "osm_type": "nodes" }, "geometry": { "type": "Point", "coordinates": [ 27.3501905, 53.8929509 ] } },
{ "type": "Feature", "properties": { "name": "Відзібор", "name:en": null, "railway": "station", "ele": null, "operator:type": null, "layer": null, "addr:full": null, "addr:city": null, "source": null, "name:be": "Відзібор", "name:ru": "Видибор", "osm_id": 2338416156, "osm_type": "nodes" }, "geometry": { "type": "Point", "coordinates": [ 26.7702562, 51.9887977 ] } },
{ "type": "Feature", "properties": { "name": "Скрыбаўцы", "name:en": null, "railway": "station", "ele": null, "operator:type": null, "layer": null, "addr:full": null, "addr:city": null, "source": null, "name:be": "Скрыбаўцы", "name:ru": "Скрибовцы", "osm_id": 2467061054, "osm_type": "nodes" }, "geometry": { "type": "Point", "coordinates": [ 24.9885655, 53.691482 ] } },
{ "type": "Feature", "properties": { "name": "Жытомля", "name:en": null, "railway": "station", "ele": null, "operator:type": null, "layer": null, "addr:full": null, "addr:city": null, "source": null, "name:be": "Жытомля", "name:ru": "Житомля", "osm_id": 2618756316, "osm_type": "nodes" }, "geometry": { "type": "Point", "coordinates": [ 24.1090827, 53.6181581 ] } },
{ "type": "Feature", "properties": { "name": "Дземяхі", "name:en": null, "railway": "station", "ele": null, "operator:type": null, "layer": null, "addr:full": null, "addr:city": null, "source": null, "name:be": "Дземяхі", "name:ru": "Демехи", "osm_id": 2686680075, "osm_type": "nodes" }, "geometry": { "type": "Point", "coordinates": [ 30.2022815, 52.3344234 ] } },
{ "type": "Feature", "properties": { "name": "Койданава", "name:en": null, "railway": "station", "ele": null, "operator:type": null, "layer": null, "addr:full": null, "addr:city": null, "source": null, "name:be": "Койданава", "name:ru": "Койданово", "osm_id": 2706005379, "osm_type": "nodes" }, "geometry": { "type": "Point", "coordinates": [ 27.1590037, 53.682567 ] } },
{ "type": "Feature", "properties": { "name": "Уша", "name:en": null, "railway": "station", "ele": null, "operator:type": null, "layer": null, "addr:full": null, "addr:city": null, "source": null, "name:be": "Уша", "name:ru": "Уша", "osm_id": 2728286047, "osm_type": "nodes" }, "geometry": { "type": "Point", "coordinates": [ 27.0665884, 54.2528938 ] } },
{ "type": "Feature", "properties": { "name": "Баранавічы Палескія", "name:en": null, "railway": "station", "ele": null, "operator:type": null, "layer": null, "addr:full": null, "addr:city": null, "source": null, "name:be": "Баранавічы Палескія", "name:ru": "Барановичи-Полесские", "osm_id": 2737375271, "osm_type": "nodes" }, "geometry": { "type": "Point", "coordinates": [ 26.0423391, 53.1292146 ] } },
{ "type": "Feature", "properties": { "name": "Негарэлае", "name:en": null, "railway": "station", "ele": null, "operator:type": null, "layer": null, "addr:full": null, "addr:city": null, "source": null, "name:be": "Негарэлае", "name:ru": "Негорелое", "osm_id": 2706133520, "osm_type": "nodes" }, "geometry": { "type": "Point", "coordinates": [ 27.072475, 53.6071429 ] } },
{ "type": "Feature", "properties": { "name": "Трудавая", "name:en": null, "railway": "station", "ele": null, "operator:type": null, "layer": null, "addr:full": null, "addr:city": null, "source": null, "name:be": "Трудавая", "name:ru": "Трудовая", "osm_id": 2747790273, "osm_type": "nodes" }, "geometry": { "type": "Point", "coordinates": [ 25.3920135, 52.1462931 ] } },
{ "type": "Feature", "properties": { "name": "Гарынь", "name:en": null, "railway": "station", "ele": null, "operator:type": null, "layer": null, "addr:full": null, "addr:city": null, "source": null, "name:be": "Гарынь", "name:ru": "Горынь", "osm_id": 2760129354, "osm_type": "nodes" }, "geometry": { "type": "Point", "coordinates": [ 26.7837539, 51.8520772 ] } },
{ "type": "Feature", "properties": { "name": "Ляхавічы", "name:en": null, "railway": "station", "ele": null, "operator:type": null, "layer": null, "addr:full": null, "addr:city": null, "source": null, "name:be": "Ляхавічы", "name:ru": "Ляховичи", "osm_id": 2761374163, "osm_type": "nodes" }, "geometry": { "type": "Point", "coordinates": [ 26.2277492, 53.0289414 ] } },
{ "type": "Feature", "properties": { "name": "Пхоў", "name:en": null, "railway": "station", "ele": null, "operator:type": null, "layer": null, "addr:full": null, "addr:city": null, "source": null, "name:be": "Пхоў", "name:ru": "Пхов", "osm_id": 2805708708, "osm_type": "nodes" }, "geometry": { "type": "Point", "coordinates": [ 29.236289, 52.0861351 ] } },
{ "type": "Feature", "properties": { "name": "Цімкавічы", "name:en": null, "railway": "station", "ele": null, "operator:type": null, "layer": null, "addr:full": null, "addr:city": null, "source": null, "name:be": "Цімкавічы", "name:ru": "Тимковичи", "osm_id": 2828589173, "osm_type": "nodes" }, "geometry": { "type": "Point", "coordinates": [ 27.0324149, 53.086543 ] } },
{ "type": "Feature", "properties": { "name": "Сож", "name:en": null, "railway": "station", "ele": null, "operator:type": null, "layer": null, "addr:full": null, "addr:city": null, "source": null, "name:be": "Сож", "name:ru": "Сож", "osm_id": 2836243438, "osm_type": "nodes" }, "geometry": { "type": "Point", "coordinates": [ 30.9869807, 52.4977696 ] } },
{ "type": "Feature", "properties": { "name": "Пост 151 км", "name:en": null, "railway": "station", "ele": null, "operator:type": null, "layer": null, "addr:full": null, "addr:city": null, "source": null, "name:be": "Пост 151 км", "name:ru": "Пост 151 км", "osm_id": 2836397244, "osm_type": "nodes" }, "geometry": { "type": "Point", "coordinates": [ 31.439223, 52.1509802 ] } },
{ "type": "Feature", "properties": { "name": "Ждановічы", "name:en": null, "railway": "station", "ele": null, "operator:type": null, "layer": null, "addr:full": null, "addr:city": null, "source": null, "name:be": "Ждановічы", "name:ru": "Ждановичи", "osm_id": 2889080144, "osm_type": "nodes" }, "geometry": { "type": "Point", "coordinates": [ 27.4262547, 53.9471076 ] } },
{ "type": "Feature", "properties": { "name": "Малькавічы", "name:en": null, "railway": "station", "ele": null, "operator:type": null, "layer": null, "addr:full": null, "addr:city": null, "source": null, "name:be": "Малькавічы", "name:ru": "Мальковичи", "osm_id": 2761374171, "osm_type": "nodes" }, "geometry": { "type": "Point", "coordinates": [ 26.579211, 52.5397001 ] } },
{ "type": "Feature", "properties": { "name": "Палачаны", "name:en": null, "railway": "station", "ele": null, "operator:type": null, "layer": null, "addr:full": null, "addr:city": null, "source": null, "name:be": "Палачаны", "name:ru": "Полочаны", "osm_id": 2774608150, "osm_type": "nodes" }, "geometry": { "type": "Point", "coordinates": [ 26.7074726, 54.2279326 ] } },
{ "type": "Feature", "properties": { "name": "Бераставіца", "name:en": null, "railway": "station", "ele": null, "operator:type": null, "layer": null, "addr:full": null, "addr:city": null, "source": null, "name:be": "Бераставіца", "name:ru": "Берестовица", "osm_id": 2779764244, "osm_type": "nodes" }, "geometry": { "type": "Point", "coordinates": [ 23.9678025, 53.1161085 ] } },
{ "type": "Feature", "properties": { "name": "Хальч", "name:en": null, "railway": "station", "ele": null, "operator:type": null, "layer": null, "addr:full": null, "addr:city": null, "source": null, "name:be": "Хальч", "name:ru": "Хальч", "osm_id": 2840319526, "osm_type": "nodes" }, "geometry": { "type": "Point", "coordinates": [ 30.1955327, 52.8524424 ] } },
{ "type": "Feature", "properties": { "name": "Вакзальная", "name:en": null, "railway": "station", "ele": null, "operator:type": null, "layer": null, "addr:full": null, "addr:city": null, "source": null, "name:be": "Вакзальная", "name:ru": "Вокзальная", "osm_id": 2899020808, "osm_type": "nodes" }, "geometry": { "type": "Point", "coordinates": [ 27.5466801, 53.8898402 ] } },
{ "type": "Feature", "properties": { "name": "Навасады", "name:en": null, "railway": "station", "ele": null, "operator:type": null, "layer": null, "addr:full": null, "addr:city": null, "source": null, "name:be": "Навасады", "name:ru": "Новосады", "osm_id": 3245901789, "osm_type": "nodes" }, "geometry": { "type": "Point", "coordinates": [ 28.6982871, 54.2507188 ] } },
{ "type": "Feature", "properties": { "name": "Калінкавічы Усходнія", "name:en": null, "railway": "station", "ele": null, "operator:type": null, "layer": null, "addr:full": null, "addr:city": null, "source": null, "name:be": "Калінкавічы Усходнія", "name:ru": "Калинковичи-Восточные", "osm_id": 3049611945, "osm_type": "nodes" }, "geometry": { "type": "Point", "coordinates": [ 29.3504354, 52.1406329 ] } },
{ "type": "Feature", "properties": { "name": "Рэчыца", "name:en": null, "railway": "station", "ele": null, "operator:type": null, "layer": null, "addr:full": null, "addr:city": null, "source": null, "name:be": "Рэчыца", "name:ru": "Речица", "osm_id": 3049681593, "osm_type": "nodes" }, "geometry": { "type": "Point", "coordinates": [ 30.3934602, 52.3492366 ] } },
{ "type": "Feature", "properties": { "name": "Латва", "name:en": null, "railway": "station", "ele": null, "operator:type": null, "layer": null, "addr:full": null, "addr:city": null, "source": null, "name:be": "Латва", "name:ru": "Лотва", "osm_id": 3257549367, "osm_type": "nodes" }, "geometry": { "type": "Point", "coordinates": [ 30.2695057, 54.0941398 ] } },
{ "type": "Feature", "properties": { "name": "Вендрыж", "name:en": null, "railway": "station", "ele": null, "operator:type": null, "layer": null, "addr:full": null, "addr:city": null, "source": null, "name:be": "Вендрыж", "name:ru": "Вендриж", "osm_id": 3309974961, "osm_type": "nodes" }, "geometry": { "type": "Point", "coordinates": [ 30.0365835, 53.8034068 ] } },
{ "type": "Feature", "properties": { "name": "Друць", "name:en": null, "railway": "station", "ele": null, "operator:type": null, "layer": null, "addr:full": null, "addr:city": null, "source": null, "name:be": "Друць", "name:ru": "Друть", "osm_id": 3309974963, "osm_type": "nodes" }, "geometry": { "type": "Point", "coordinates": [ 29.7752393, 53.7041506 ] } },
{ "type": "Feature", "properties": { "name": "Копысь", "name:en": null, "railway": "station", "ele": null, "operator:type": null, "layer": null, "addr:full": null, "addr:city": null, "source": null, "name:be": "Копысь", "name:ru": "Копысь", "osm_id": 3312011581, "osm_type": "nodes" }, "geometry": { "type": "Point", "coordinates": [ 30.269933, 54.3153842 ] } },
{ "type": "Feature", "properties": { "name": "Бігосава", "name:en": null, "railway": "station", "ele": null, "operator:type": null, "layer": null, "addr:full": null, "addr:city": null, "source": null, "name:be": "Бігосава", "name:ru": "Бигосово", "osm_id": 3396725382, "osm_type": "nodes" }, "geometry": { "type": "Point", "coordinates": [ 27.7374436, 55.8343968 ] } },
{ "type": "Feature", "properties": { "name": "Юрацішкі", "name:en": null, "railway": "station", "ele": null, "operator:type": null, "layer": null, "addr:full": null, "addr:city": null, "source": null, "name:be": "Юрацішкі", "name:ru": "Юратишки", "osm_id": 3721358306, "osm_type": "nodes" }, "geometry": { "type": "Point", "coordinates": [ 25.9172202, 54.064342 ] } },
{ "type": "Feature", "properties": { "name": "Чарлёна", "name:en": null, "railway": "station", "ele": null, "operator:type": null, "layer": null, "addr:full": null, "addr:city": null, "source": "survey", "name:be": "Чарлёна", "name:ru": "Черлёна", "osm_id": 3990886565, "osm_type": "nodes" }, "geometry": { "type": "Point", "coordinates": [ 24.3134072, 53.4968789 ] } },
{ "type": "Feature", "properties": { "name": "Княжыца", "name:en": null, "railway": "station", "ele": null, "operator:type": null, "layer": null, "addr:full": null, "addr:city": null, "source": null, "name:be": "Княжыца", "name:ru": "Княжица", "osm_id": 4039459534, "osm_type": "nodes" }, "geometry": { "type": "Point", "coordinates": [ 30.0201019, 55.1826865 ] } },
{ "type": "Feature", "properties": { "name": "Вярхуціна", "name:en": null, "railway": "station", "ele": null, "operator:type": null, "layer": null, "addr:full": null, "addr:city": null, "source": null, "name:be": "Вярхуціна", "name:ru": "Верхутино", "osm_id": 4099784645, "osm_type": "nodes" }, "geometry": { "type": "Point", "coordinates": [ 28.0496107, 52.9671682 ] } },
{ "type": "Feature", "properties": { "name": "Красны Бераг", "name:en": null, "railway": "station", "ele": null, "operator:type": null, "layer": null, "addr:full": null, "addr:city": "Красны Бераг", "source": null, "name:be": "Красны Бераг", "name:ru": "Красный Берег", "osm_id": 4261075015, "osm_type": "nodes" }, "geometry": { "type": "Point", "coordinates": [ 29.7857247, 52.9513992 ] } },
{ "type": "Feature", "properties": { "name": "Калодзішчы", "name:en": null, "railway": "station", "ele": null, "operator:type": null, "layer": null, "addr:full": null, "addr:city": null, "source": null, "name:be": "Калодзішчы", "name:ru": "Колодищи", "osm_id": 4448459142, "osm_type": "nodes" }, "geometry": { "type": "Point", "coordinates": [ 27.7753714, 53.9456373 ] } },
{ "type": "Feature", "properties": { "name": "Свольна", "name:en": null, "railway": "station", "ele": null, "operator:type": null, "layer": null, "addr:full": null, "addr:city": null, "source": null, "name:be": "Свольна", "name:ru": "Свольно", "osm_id": 3407424294, "osm_type": "nodes" }, "geometry": { "type": "Point", "coordinates": [ 28.1077498, 55.7544647 ] } },
{ "type": "Feature", "properties": { "name": "Бобр", "name:en": "Bobr", "railway": "station", "ele": null, "operator:type": null, "layer": null, "addr:full": null, "addr:city": null, "source": null, "name:be": "Бобр", "name:ru": "Бобр", "osm_id": 3412602231, "osm_type": "nodes" }, "geometry": { "type": "Point", "coordinates": [ 29.2619235, 54.3196325 ] } },
{ "type": "Feature", "properties": { "name": "Русіно", "name:en": null, "railway": "station", "ele": null, "operator:type": null, "layer": null, "addr:full": null, "addr:city": null, "source": null, "name:be": "Русіно", "name:ru": "Русино", "osm_id": 4006018170, "osm_type": "nodes" }, "geometry": { "type": "Point", "coordinates": [ 26.0950735, 53.0860928 ] } },
{ "type": "Feature", "properties": { "name": "Лучоса", "name:en": null, "railway": "station", "ele": null, "operator:type": null, "layer": null, "addr:full": null, "addr:city": null, "source": null, "name:be": "Лучоса", "name:ru": "Лучёса", "osm_id": 4082983115, "osm_type": "nodes" }, "geometry": { "type": "Point", "coordinates": [ 30.2150718, 55.1513608 ] } },
{ "type": "Feature", "properties": { "name": "Жыткавічы", "name:en": null, "railway": "station", "ele": null, "operator:type": null, "layer": null, "addr:full": null, "addr:city": null, "source": null, "name:be": "Жыткавічы", "name:ru": "Житковичи", "osm_id": 4481669142, "osm_type": "nodes" }, "geometry": { "type": "Point", "coordinates": [ 27.8560331, 52.2187303 ] } },
{ "type": "Feature", "properties": { "name": "Янаў Палескі", "name:en": null, "railway": "station", "ele": null, "operator:type": null, "layer": null, "addr:full": null, "addr:city": null, "source": null, "name:be": "Янаў Палескі", "name:ru": "Янов-Полесский", "osm_id": 4478839310, "osm_type": "nodes" }, "geometry": { "type": "Point", "coordinates": [ 25.5520493, 52.1293737 ] } },
{ "type": "Feature", "properties": { "name": "Сітніца", "name:en": null, "railway": "station", "ele": null, "operator:type": null, "layer": null, "addr:full": null, "addr:city": null, "source": null, "name:be": "Сітніца", "name:ru": "Ситница", "osm_id": 4498286865, "osm_type": "nodes" }, "geometry": { "type": "Point", "coordinates": [ 27.4067786, 52.2080321 ] } },
{ "type": "Feature", "properties": { "name": "Ашмяны", "name:en": null, "railway": "station", "ele": null, "operator:type": null, "layer": null, "addr:full": null, "addr:city": null, "source": null, "name:be": "Ашмяны", "name:ru": "Ошмяны", "osm_id": 5002186635, "osm_type": "nodes" }, "geometry": { "type": "Point", "coordinates": [ 26.0809595, 54.5314076 ] } },
{ "type": "Feature", "properties": { "name": "Брэст-Паўночны", "name:en": null, "railway": "station", "ele": null, "operator:type": null, "layer": null, "addr:full": null, "addr:city": null, "source": null, "name:be": "Брэст-Паўночны", "name:ru": "Брест-Северный", "osm_id": 5218776915, "osm_type": "nodes" }, "geometry": { "type": "Point", "coordinates": [ 23.6540199, 52.1113358 ] } },
{ "type": "Feature", "properties": { "name": "Калінкавічы", "name:en": null, "railway": "station", "ele": null, "operator:type": null, "layer": null, "addr:full": null, "addr:city": null, "source": null, "name:be": "Калінкавічы", "name:ru": "Калинковичи", "osm_id": 5577621604, "osm_type": "nodes" }, "geometry": { "type": "Point", "coordinates": [ 29.3134815, 52.1388971 ] } },
{ "type": "Feature", "properties": { "name": "Аульс", "name:en": null, "railway": "station", "ele": null, "operator:type": null, "layer": null, "addr:full": null, "addr:city": null, "source": null, "name:be": "Аульс", "name:ru": "Аульс", "osm_id": 5821196161, "osm_type": "nodes" }, "geometry": { "type": "Point", "coordinates": [ 23.9596152, 53.6742759 ] } },
{ "type": "Feature", "properties": { "name": "Аранчыцы", "name:en": null, "railway": "station", "ele": null, "operator:type": null, "layer": null, "addr:full": null, "addr:city": null, "source": null, "name:be": "Аранчыцы", "name:ru": "Оранчицы", "osm_id": 5844051545, "osm_type": "nodes" }, "geometry": { "type": "Point", "coordinates": [ 24.5230206, 52.4704907 ] } },
{ "type": "Feature", "properties": { "name": "Гомель Цотны", "name:en": null, "railway": "station", "ele": null, "operator:type": null, "layer": null, "addr:full": null, "addr:city": null, "source": null, "name:be": "Гомель Цотны", "name:ru": "Гомель-Чётный", "osm_id": 5220311985, "osm_type": "nodes" }, "geometry": { "type": "Point", "coordinates": [ 30.9593661, 52.4395538 ] } },
{ "type": "Feature", "properties": { "name": "Калій 4", "name:en": null, "railway": "station", "ele": null, "operator:type": null, "layer": null, "addr:full": null, "addr:city": null, "source": null, "name:be": "Калій 4", "name:ru": "Калий IV", "osm_id": 5239312252, "osm_type": "nodes" }, "geometry": { "type": "Point", "coordinates": [ 27.772892, 52.8039953 ] } },
{ "type": "Feature", "properties": { "name": "Татарка", "name:en": null, "railway": "station", "ele": null, "operator:type": null, "layer": null, "addr:full": null, "addr:city": null, "source": null, "name:be": "Татарка", "name:ru": "Татарка", "osm_id": 5432718030, "osm_type": "nodes" }, "geometry": { "type": "Point", "coordinates": [ 28.823069, 53.257568 ] } },
{ "type": "Feature", "properties": { "name": "Обаль", "name:en": null, "railway": "station", "ele": null, "operator:type": null, "layer": null, "addr:full": null, "addr:city": null, "source": null, "name:be": "Обаль", "name:ru": "Оболь", "osm_id": 5580688560, "osm_type": "nodes" }, "geometry": { "type": "Point", "coordinates": [ 29.2750145, 55.3635946 ] } },
{ "type": "Feature", "properties": { "name": "Крынкі", "name:en": null, "railway": "station", "ele": null, "operator:type": null, "layer": null, "addr:full": null, "addr:city": null, "source": null, "name:be": "Крынкі", "name:ru": "Крынки", "osm_id": 5779606198, "osm_type": "nodes" }, "geometry": { "type": "Point", "coordinates": [ 30.4396618, 55.031263 ] } },
{ "type": "Feature", "properties": { "name": "Тэўлі", "name:en": null, "railway": "station", "ele": null, "operator:type": null, "layer": null, "addr:full": null, "addr:city": null, "source": null, "name:be": "Тэўлі", "name:ru": "Тевли", "osm_id": 5844008030, "osm_type": "nodes" }, "geometry": { "type": "Point", "coordinates": [ 24.2362221, 52.3399926 ] } },
{ "type": "Feature", "properties": { "name": "Бяроза-Картузская", "name:en": null, "railway": "station", "ele": null, "operator:type": null, "layer": null, "addr:full": null, "addr:city": null, "source": null, "name:be": "Бяроза-Картузская", "name:ru": "Берёза-Картузская", "osm_id": 5844140825, "osm_type": "nodes" }, "geometry": { "type": "Point", "coordinates": [ 24.8994016, 52.5329565 ] } },
{ "type": "Feature", "properties": { "name": "Бронная Гара", "name:en": null, "railway": "station", "ele": null, "operator:type": null, "layer": null, "addr:full": null, "addr:city": null, "source": null, "name:be": "Бронная Гара", "name:ru": "Бронная Гора", "osm_id": 5844209167, "osm_type": "nodes" }, "geometry": { "type": "Point", "coordinates": [ 25.0927158, 52.6067761 ] } },
{ "type": "Feature", "properties": { "name": "Брэст-Усходні", "name:en": null, "railway": "station", "ele": null, "operator:type": null, "layer": null, "addr:full": null, "addr:city": null, "source": null, "name:be": "Брэст-Усходні", "name:ru": "Брест-Восточный", "osm_id": 5844631730, "osm_type": "nodes" }, "geometry": { "type": "Point", "coordinates": [ 23.7272676, 52.1102695 ] } },
{ "type": "Feature", "properties": { "name": "Даманава", "name:en": null, "railway": "station", "ele": null, "operator:type": null, "layer": null, "addr:full": null, "addr:city": null, "source": null, "name:be": "Даманава", "name:ru": "Доманово", "osm_id": 5844631732, "osm_type": "nodes" }, "geometry": { "type": "Point", "coordinates": [ 25.4742126, 52.8287159 ] } },
{ "type": "Feature", "properties": { "name": "Грыцавец", "name:en": null, "railway": "station", "ele": null, "operator:type": null, "layer": null, "addr:full": null, "addr:city": null, "source": null, "name:be": "Грыцавец", "name:ru": "Грицевец", "osm_id": 5844631747, "osm_type": "nodes" }, "geometry": { "type": "Point", "coordinates": [ 25.8633078, 53.0402383 ] } },
{ "type": "Feature", "properties": { "name": "Коласава", "name:en": null, "railway": "station", "ele": null, "operator:type": null, "layer": null, "addr:full": null, "addr:city": null, "source": null, "name:be": "Коласава", "name:ru": "Колосово", "osm_id": 5846894290, "osm_type": "nodes" }, "geometry": { "type": "Point", "coordinates": [ 26.9256261, 53.5285083 ] } },
{ "type": "Feature", "properties": { "name": "Мінск-Усходні", "name:en": null, "railway": "station", "ele": null, "operator:type": null, "layer": null, "addr:full": null, "addr:city": null, "source": null, "name:be": "Мінск-Усходні", "name:ru": "Минск-Восточный", "osm_id": 5847112586, "osm_type": "nodes" }, "geometry": { "type": "Point", "coordinates": [ 27.5866371, 53.8911821 ] } },
{ "type": "Feature", "properties": { "name": "Шэметава", "name:en": null, "railway": "station", "ele": null, "operator:type": null, "layer": null, "addr:full": null, "addr:city": null, "source": null, "name:be": "Шэметава", "name:ru": "Шеметово", "osm_id": 6387991486, "osm_type": "nodes" }, "geometry": { "type": "Point", "coordinates": [ 28.0562638, 53.8836984 ] } },
{ "type": "Feature", "properties": { "name": "Солы", "name:en": null, "railway": "station", "ele": null, "operator:type": null, "layer": null, "addr:full": null, "addr:city": null, "source": null, "name:be": "Солы", "name:ru": "Солы", "osm_id": 6768823616, "osm_type": "nodes" }, "geometry": { "type": "Point", "coordinates": [ 26.1924793, 54.5097767 ] } },
{ "type": "Feature", "properties": { "name": "Мажэеўка", "name:en": null, "railway": "station", "ele": null, "operator:type": null, "layer": null, "addr:full": null, "addr:city": null, "source": null, "name:be": "Мажэеўка", "name:ru": "Можеевка", "osm_id": 6910989020, "osm_type": "nodes" }, "geometry": { "type": "Point", "coordinates": [ 30.4108777, 54.5659352 ] } },
{ "type": "Feature", "properties": { "name": "Асіповічы 3", "name:en": null, "railway": "station", "ele": null, "operator:type": null, "layer": null, "addr:full": null, "addr:city": null, "source": null, "name:be": "Асіповічы 3", "name:ru": "Осиповичи-3", "osm_id": 8917358623, "osm_type": "nodes" }, "geometry": { "type": "Point", "coordinates": [ 28.7133297, 53.2824864 ] } },
{ "type": "Feature", "properties": { "name": "Бярозкі", "name:en": null, "railway": "station", "ele": null, "operator:type": null, "layer": null, "addr:full": null, "addr:city": null, "source": null, "name:be": "Бярозкі", "name:ru": "Берёзки", "osm_id": 8927612202, "osm_type": "nodes" }, "geometry": { "type": "Point", "coordinates": [ 31.1006561, 52.3916939 ] } },
{ "type": "Feature", "properties": { "name": "Навабеліцкая", "name:en": null, "railway": "station", "ele": null, "operator:type": null, "layer": null, "addr:full": null, "addr:city": null, "source": null, "name:be": "Навабеліцкая", "name:ru": "Новобелицкая", "osm_id": 8927649721, "osm_type": "nodes" }, "geometry": { "type": "Point", "coordinates": [ 31.0328961, 52.3994995 ] } },
{ "type": "Feature", "properties": { "name": "Лісічкі", "name:en": null, "railway": "station", "ele": null, "operator:type": null, "layer": null, "addr:full": null, "addr:city": null, "source": null, "name:be": "Лісічкі", "name:ru": "Лисички", "osm_id": 8927796264, "osm_type": "nodes" }, "geometry": { "type": "Point", "coordinates": [ 31.0619934, 52.3838699 ] } },
{ "type": "Feature", "properties": { "name": "Жлобін Заходні", "name:en": null, "railway": "station", "ele": null, "operator:type": null, "layer": null, "addr:full": null, "addr:city": null, "source": null, "name:be": "Жлобін Заходні", "name:ru": "Жлобин-Западный", "osm_id": 8928950238, "osm_type": "nodes" }, "geometry": { "type": "Point", "coordinates": [ 29.9544449, 52.8965135 ] } },
{ "type": "Feature", "properties": { "name": "Рабкор", "name:en": null, "railway": "station", "ele": null, "operator:type": null, "layer": null, "addr:full": null, "addr:city": null, "source": null, "name:be": "Рабкор", "name:ru": "Рабкор", "osm_id": 9766189557, "osm_type": "nodes" }, "geometry": { "type": "Point", "coordinates": [ 28.8465414, 52.6126289 ] } },
{ "type": "Feature", "properties": { "name": "Маладзечна", "name:en": null, "railway": "station", "ele": null, "operator:type": null, "layer": null, "addr:full": null, "addr:city": null, "source": null, "name:be": "Маладзечна", "name:ru": "Молодечно", "osm_id": 9825809815, "osm_type": "nodes" }, "geometry": { "type": "Point", "coordinates": [ 26.8390955, 54.3162397 ] } },
{ "type": "Feature", "properties": { "name": "Валожын", "name:en": null, "railway": "station", "ele": null, "operator:type": null, "layer": null, "addr:full": null, "addr:city": null, "source": null, "name:be": "Валожын", "name:ru": "Воложин", "osm_id": 9825842719, "osm_type": "nodes" }, "geometry": { "type": "Point", "coordinates": [ 26.4488889, 54.2202217 ] } },
{ "type": "Feature", "properties": { "name": "Сула", "name:en": null, "railway": "station", "ele": null, "operator:type": null, "layer": null, "addr:full": null, "addr:city": null, "source": null, "name:be": "Сула", "name:ru": "Сула", "osm_id": 9921018685, "osm_type": "nodes" }, "geometry": { "type": "Point", "coordinates": [ 26.8752089, 53.7412515 ] } },
{ "type": "Feature", "properties": { "name": "Полацк", "name:en": null, "railway": "station", "ele": null, "operator:type": null, "layer": null, "addr:full": null, "addr:city": null, "source": null, "name:be": "Полацк", "name:ru": "Полоцк", "osm_id": 10702924390, "osm_type": "nodes" }, "geometry": { "type": "Point", "coordinates": [ 28.7826894, 55.4918927 ] } },
{ "type": "Feature", "properties": { "name": "Магілёў 2", "name:en": null, "railway": "station", "ele": null, "operator:type": null, "layer": null, "addr:full": null, "addr:city": null, "source": null, "name:be": "Магілёў 2", "name:ru": "Могилёв-2", "osm_id": 8917358618, "osm_type": "nodes" }, "geometry": { "type": "Point", "coordinates": [ 30.3077618, 53.9122411 ] } },
{ "type": "Feature", "properties": { "name": "Жлобін Пасажырскі", "name:en": null, "railway": "station", "ele": null, "operator:type": null, "layer": null, "addr:full": null, "addr:city": null, "source": null, "name:be": "Жлобін Пасажырскі", "name:ru": "Жлобин-Пассажирский", "osm_id": 8917417670, "osm_type": "nodes" }, "geometry": { "type": "Point", "coordinates": [ 30.0367122, 52.8899346 ] } },
{ "type": "Feature", "properties": { "name": "Жлобін Паўночны", "name:en": null, "railway": "station", "ele": null, "operator:type": null, "layer": null, "addr:full": null, "addr:city": null, "source": null, "name:be": "Жлобін Паўночны", "name:ru": "Жлобин-Северный", "osm_id": 8917662541, "osm_type": "nodes" }, "geometry": { "type": "Point", "coordinates": [ 30.0046599, 52.9155693 ] } },
{ "type": "Feature", "properties": { "name": "Жлобін Падольскі", "name:en": null, "railway": "station", "ele": null, "operator:type": null, "layer": null, "addr:full": null, "addr:city": null, "source": null, "name:be": "Жлобін Падольскі", "name:ru": "Жлобин-Подольский", "osm_id": 8919931913, "osm_type": "nodes" }, "geometry": { "type": "Point", "coordinates": [ 30.026017, 52.8655117 ] } },
{ "type": "Feature", "properties": { "name": "Крычаў-1", "name:en": null, "railway": "station", "ele": null, "operator:type": null, "layer": null, "addr:full": null, "addr:city": null, "source": null, "name:be": "Крычаў-1", "name:ru": "Кричев-1", "osm_id": 9607560511, "osm_type": "nodes" }, "geometry": { "type": "Point", "coordinates": [ 31.7108345, 53.7391402 ] } },
{ "type": "Feature", "properties": { "name": "Варапаева", "name:en": null, "railway": "station", "ele": null, "operator:type": null, "layer": null, "addr:full": null, "addr:city": null, "source": null, "name:be": "Варапаева", "name:ru": "Воропаево", "osm_id": 9644427255, "osm_type": "nodes" }, "geometry": { "type": "Point", "coordinates": [ 27.2036542, 55.1416146 ] } },
{ "type": "Feature", "properties": { "name": "Орша-Заходняя", "name:en": "Orsha-West", "railway": "station", "ele": null, "operator:type": null, "layer": null, "addr:full": null, "addr:city": null, "source": null, "name:be": "Орша-Заходняя", "name:ru": "Орша-Западная", "osm_id": 10639156633, "osm_type": "nodes" }, "geometry": { "type": "Point", "coordinates": [ 30.3753211, 54.5041599 ] } },
{ "type": "Feature", "properties": { "name": "Слуцк", "name:en": null, "railway": "station", "ele": null, "operator:type": null, "layer": null, "addr:full": null, "addr:city": null, "source": null, "name:be": "Слуцк", "name:ru": "Слуцк", "osm_id": 10641111954, "osm_type": "nodes" }, "geometry": { "type": "Point", "coordinates": [ 27.5227877, 53.014091 ] } },
{ "type": "Feature", "properties": { "name": "Мядзвёдка", "name:en": null, "railway": "station", "ele": null, "operator:type": null, "layer": null, "addr:full": null, "addr:city": null, "source": null, "name:be": "Мядзвёдка", "name:ru": "Медвёдка", "osm_id": 10776720869, "osm_type": "nodes" }, "geometry": { "type": "Point", "coordinates": [ 30.1593971, 55.138981 ] } },
{ "type": "Feature", "properties": { "name": "Сверкава", "name:en": null, "railway": "station", "ele": null, "operator:type": null, "layer": null, "addr:full": null, "addr:city": null, "source": null, "name:be": "Сверкава", "name:ru": "Сверково", "osm_id": 306069869, "osm_type": "nodes" }, "geometry": { "type": "Point", "coordinates": [ 30.0075062, 53.0505968 ] } },
{ "type": "Feature", "properties": { "name": "Жлобін Сартавальны", "name:en": null, "railway": "station", "ele": null, "operator:type": null, "layer": null, "addr:full": null, "addr:city": null, "source": null, "name:be": "Жлобін Сартавальны", "name:ru": "Жлобин Сортировочный", "osm_id": 8917417517, "osm_type": "nodes" }, "geometry": { "type": "Point", "coordinates": [ 30.0094986, 52.8895691 ] } },
{ "type": "Feature", "properties": { "name": "Аэрадромная", "name:en": "Aeradromnaja", "railway": "station", "ele": null, "operator:type": null, "layer": "-5", "addr:full": null, "addr:city": null, "source": null, "name:be": "Аэрадромная", "name:ru": "Аэродромная", "osm_id": 11105607961, "osm_type": "nodes" }, "geometry": { "type": "Point", "coordinates": [ 27.547073, 53.8677526 ] } },
{ "type": "Feature", "properties": { "name": "Будслаў", "name:en": null, "railway": "station", "ele": null, "operator:type": null, "layer": null, "addr:full": null, "addr:city": null, "source": null, "name:be": "Будслаў", "name:ru": "Будслав", "osm_id": 4568623545, "osm_type": "nodes" }, "geometry": { "type": "Point", "coordinates": [ 27.4071044, 54.791179 ] } },
{ "type": "Feature", "properties": { "name": "Немаршанскі Сад", "name:en": "Niemaršanski Sad", "railway": "station", "ele": null, "operator:type": null, "layer": "-5", "addr:full": null, "addr:city": null, "source": null, "name:be": "Немаршанскі Сад", "name:ru": "Неморшанский Сад", "osm_id": 5340830232, "osm_type": "nodes" }, "geometry": { "type": "Point", "coordinates": [ 27.5367949, 53.8501732 ] } },
{ "type": "Feature", "properties": { "name": "Стайкі", "name:en": null, "railway": "station", "ele": null, "operator:type": null, "layer": null, "addr:full": null, "addr:city": null, "source": null, "name:be": "Стайкі", "name:ru": "Стайки", "osm_id": 3327244469, "osm_type": "nodes" }, "geometry": { "type": "Point", "coordinates": [ 30.3166506, 54.6850569 ] } },
{ "type": "Feature", "properties": { "name": "Грыбачы", "name:en": null, "railway": "station", "ele": null, "operator:type": null, "layer": null, "addr:full": null, "addr:city": null, "source": null, "name:be": "Грыбачы", "name:ru": "Грибачи", "osm_id": 1762393856, "osm_type": "nodes" }, "geometry": { "type": "Point", "coordinates": [ 29.9978034, 55.76484 ] } },
{ "type": "Feature", "properties": { "name": "Крупкі", "name:en": null, "railway": "station", "ele": null, "operator:type": null, "layer": null, "addr:full": null, "addr:city": null, "source": null, "name:be": "Крупкі", "name:ru": "Крупки", "osm_id": 11438875124, "osm_type": "nodes" }, "geometry": { "type": "Point", "coordinates": [ 29.0699979, 54.2989621 ] } },
{ "type": "Feature", "properties": { "name": "Талачын", "name:en": null, "railway": "station", "ele": null, "operator:type": null, "layer": null, "addr:full": null, "addr:city": null, "source": null, "name:be": "Талачын", "name:ru": "Толочин", "osm_id": 11438875119, "osm_type": "nodes" }, "geometry": { "type": "Point", "coordinates": [ 29.7529774, 54.4023415 ] } },
{ "type": "Feature", "properties": { "name": "Орша-Цэнтральная", "name:en": "Orsha-Central", "railway": "station", "ele": null, "operator:type": null, "layer": null, "addr:full": null, "addr:city": null, "source": null, "name:be": "Орша-Цэнтральная", "name:ru": "Орша-Центральная", "osm_id": 11438875116, "osm_type": "nodes" }, "geometry": { "type": "Point", "coordinates": [ 30.3767749, 54.5210838 ] } },
{ "type": "Feature", "properties": { "name": "Хлусава", "name:en": null, "railway": "station", "ele": null, "operator:type": null, "layer": null, "addr:full": null, "addr:city": null, "source": null, "name:be": "Хлусава", "name:ru": "Хлусово", "osm_id": 3058458581, "osm_type": "nodes" }, "geometry": { "type": "Point", "coordinates": [ 30.4334363, 54.5952548 ] } },
{ "type": "Feature", "properties": { "name": "Прыпяць", "name:en": null, "railway": "station", "ele": null, "operator:type": null, "layer": null, "addr:full": null, "addr:city": null, "source": null, "name:be": "Прыпяць", "name:ru": "Припять", "osm_id": 306069792, "osm_type": "nodes" }, "geometry": { "type": "Point", "coordinates": [ 26.789075, 52.125149 ] } },
{ "type": "Feature", "properties": { "name": "Нёман", "name:en": null, "railway": "station", "ele": null, "operator:type": null, "layer": null, "addr:full": null, "addr:city": null, "source": null, "name:be": "Нёман", "name:ru": "Неман", "osm_id": 306067384, "osm_type": "nodes" }, "geometry": { "type": "Point", "coordinates": [ 25.4330145, 53.6712944 ] } },
{ "type": "Feature", "properties": { "name": "Юбілейная плошча", "name:en": null, "railway": "station", "ele": null, "operator:type": null, "layer": "-5", "addr:full": null, "addr:city": null, "source": null, "name:be": "Юбілейная плошча", "name:ru": "Юбилейная площадь", "osm_id": 11105993084, "osm_type": "nodes" }, "geometry": { "type": "Point", "coordinates": [ 27.5403848, 53.9047267 ] } },
{ "type": "Feature", "properties": { "name": "Парэчча", "name:en": null, "railway": "station", "ele": null, "operator:type": null, "layer": null, "addr:full": null, "addr:city": null, "source": null, "name:be": "Парэчча", "name:ru": "Поречье", "osm_id": 11005579651, "osm_type": "nodes" }, "geometry": { "type": "Point", "coordinates": [ 24.1342324, 53.885872 ] } },
{ "type": "Feature", "properties": { "name": "Лясная", "name:en": null, "railway": "station", "ele": null, "operator:type": null, "layer": null, "addr:full": null, "addr:city": null, "source": null, "name:be": "Лясная", "name:ru": "Лесная", "osm_id": 5844639002, "osm_type": "nodes" }, "geometry": { "type": "Point", "coordinates": [ 25.7677781, 52.9802897 ] } },
{ "type": "Feature", "properties": { "name": "Церуха", "name:en": null, "railway": "station", "ele": null, "operator:type": null, "layer": null, "addr:full": null, "addr:city": null, "source": null, "name:be": "Церуха", "name:ru": "Терюха", "osm_id": 306068064, "osm_type": "nodes" }, "geometry": { "type": "Point", "coordinates": [ 31.1016403, 52.2136734 ] } },
{ "type": "Feature", "properties": { "name": "Каранёўка", "name:en": null, "railway": "station", "ele": null, "operator:type": null, "layer": null, "addr:full": null, "addr:city": null, "source": null, "name:be": "Каранёўка", "name:ru": "Коренёвка", "osm_id": 306068069, "osm_type": "nodes" }, "geometry": { "type": "Point", "coordinates": [ 31.1170003, 52.3543545 ] } },
{ "type": "Feature", "properties": { "name": "Паставы", "name:en": null, "railway": "station", "ele": null, "operator:type": null, "layer": null, "addr:full": null, "addr:city": null, "source": null, "name:be": "Паставы", "name:ru": "Поставы", "osm_id": 1236299652, "osm_type": "nodes" }, "geometry": { "type": "Point", "coordinates": [ 26.857599, 55.1233039 ] } },
{ "type": "Feature", "properties": { "name": "Езярышча", "name:en": null, "railway": "station", "ele": null, "operator:type": null, "layer": null, "addr:full": null, "addr:city": null, "source": null, "name:be": "Езярышча", "name:ru": "Езерище", "osm_id": 11672160793, "osm_type": "nodes" }, "geometry": { "type": "Point", "coordinates": [ 29.9738822, 55.8410306 ] } },
{ "type": "Feature", "properties": { "name": "Шуміліна", "name:en": null, "railway": "station", "ele": null, "operator:type": null, "layer": null, "addr:full": null, "addr:city": null, "source": null, "name:be": "Шуміліна", "name:ru": "Шумилино", "osm_id": 11438896196, "osm_type": "nodes" }, "geometry": { "type": "Point", "coordinates": [ 29.6185921, 55.3036331 ] } },
{ "type": "Feature", "properties": { "name": "Круляўшчызна", "name:en": null, "railway": "station", "ele": null, "operator:type": null, "layer": null, "addr:full": null, "addr:city": null, "source": null, "name:be": "Круляўшчызна", "name:ru": "Крулевщизна", "osm_id": 11453772866, "osm_type": "nodes" }, "geometry": { "type": "Point", "coordinates": [ 27.7819766, 55.0285162 ] } },
{ "type": "Feature", "properties": { "name": "Мазыр", "name:en": null, "railway": "station", "ele": null, "operator:type": null, "layer": null, "addr:full": null, "addr:city": null, "source": null, "name:be": "Мазыр", "name:ru": "Мозырь", "osm_id": 5245686047, "osm_type": "nodes" }, "geometry": { "type": "Point", "coordinates": [ 29.1806183, 52.0318246 ] } },
{ "type": "Feature", "properties": { "name": "Баранавічы Цэнтральныя", "name:en": null, "railway": "station", "ele": null, "operator:type": null, "layer": null, "addr:full": null, "addr:city": null, "source": null, "name:be": "Баранавічы Цэнтральныя", "name:ru": "Барановичи-Центральные", "osm_id": 5844409159, "osm_type": "nodes" }, "geometry": { "type": "Point", "coordinates": [ 25.9935234, 53.1321602 ] } },
{ "type": "Feature", "properties": { "name": "Вілейка", "name:en": "Vileyka", "railway": "station", "ele": null, "operator:type": null, "layer": null, "addr:full": null, "addr:city": null, "source": null, "name:be": "Вілейка", "name:ru": "Вилейка", "osm_id": 1390613645, "osm_type": "nodes" }, "geometry": { "type": "Point", "coordinates": [ 26.9297245, 54.5025678 ] } },
{ "type": "Feature", "properties": { "name": "Беларусь", "name:en": "Belarus", "railway": "station", "ele": null, "operator:type": null, "layer": null, "addr:full": null, "addr:city": null, "source": null, "name:be": "Беларусь", "name:ru": "Беларусь", "osm_id": 4569259301, "osm_type": "nodes" }, "geometry": { "type": "Point", "coordinates": [ 27.2839723, 54.0087677 ] } },
{ "type": "Feature", "properties": { "name": "Пруды", "name:en": null, "railway": "station", "ele": null, "operator:type": null, "layer": null, "addr:full": null, "addr:city": null, "source": null, "name:be": "Пруды", "name:ru": "Пруды", "osm_id": 306066255, "osm_type": "nodes" }, "geometry": { "type": "Point", "coordinates": [ 26.6610268, 54.3662671 ] } },
{ "type": "Feature", "properties": { "name": "Шынная", "name:en": null, "railway": "station", "ele": null, "operator:type": null, "layer": null, "addr:full": null, "addr:city": null, "source": null, "name:be": "Шынная", "name:ru": "Шинная", "osm_id": 11027492516, "osm_type": "nodes" }, "geometry": { "type": "Point", "coordinates": [ 29.2033204, 53.1879116 ] } },
{ "type": "Feature", "properties": { "name": "Косава Палескае", "name:en": null, "railway": "station", "ele": null, "operator:type": null, "layer": null, "addr:full": null, "addr:city": null, "source": null, "name:be": "Косава Палескае", "name:ru": "Коссово-Полесское", "osm_id": 5844631735, "osm_type": "nodes" }, "geometry": { "type": "Point", "coordinates": [ 25.2215722, 52.6513376 ] } },
{ "type": "Feature", "properties": { "name": "Івацэвічы", "name:en": "Ivatsevichy", "railway": "station", "ele": null, "operator:type": null, "layer": null, "addr:full": null, "addr:city": null, "source": null, "name:be": "Івацэвічы", "name:ru": "Ивацевичи", "osm_id": 5844631737, "osm_type": "nodes" }, "geometry": { "type": "Point", "coordinates": [ 25.3449906, 52.7090874 ] } },
{ "type": "Feature", "properties": { "name": "Светлагорск-на-Бярэзіне", "name:en": null, "railway": "station", "ele": null, "operator:type": null, "layer": null, "addr:full": null, "addr:city": null, "source": null, "name:be": "Светлагорск-на-Бярэзіне", "name:ru": "Светлогорск-на-Березине", "osm_id": 331099923, "osm_type": "nodes" }, "geometry": { "type": "Point", "coordinates": [ 29.7149385, 52.6309405 ] } },
{ "type": "Feature", "properties": { "name": "Міхеевічы", "name:en": null, "railway": "station", "ele": null, "operator:type": null, "layer": null, "addr:full": null, "addr:city": null, "source": null, "name:be": "Міхеевічы", "name:ru": "Михеевичи", "osm_id": 306068414, "osm_type": "nodes" }, "geometry": { "type": "Point", "coordinates": [ 31.829944, 53.6748485 ] } },
{ "type": "Feature", "properties": { "name": "Мёры", "name:en": null, "railway": "station", "ele": null, "operator:type": null, "layer": null, "addr:full": null, "addr:city": null, "source": null, "name:be": "Мёры", "name:ru": "Миоры", "osm_id": 6301373903, "osm_type": "nodes" }, "geometry": { "type": "Point", "coordinates": [ 27.6074423, 55.6258404 ] } },
{ "type": "Feature", "properties": { "name": "Гомель Пасажырскі", "name:en": null, "railway": "station", "ele": null, "operator:type": null, "layer": null, "addr:full": null, "addr:city": null, "source": null, "name:be": "Гомель Пасажырскі", "name:ru": "Гомель-Пассажирский", "osm_id": 452534425, "osm_type": "nodes" }, "geometry": { "type": "Point", "coordinates": [ 30.9907544, 52.4306636 ] } },
{ "type": "Feature", "properties": { "name": "Слуцкі Гасцінец", "name:en": "Slucki Haściniec", "railway": "station", "ele": null, "operator:type": null, "layer": "-5", "addr:full": null, "addr:city": null, "source": null, "name:be": "Слуцкі Гасцінец", "name:ru": "Слуцкий Гостинец", "osm_id": 5340834021, "osm_type": "nodes" }, "geometry": { "type": "Point", "coordinates": [ 27.5336813, 53.8422717 ] } },
{ "type": "Feature", "properties": { "name": "Деревини", "name:en": null, "railway": "station", "ele": null, "operator:type": null, "layer": null, "addr:full": null, "addr:city": null, "source": null, "name:be": null, "name:ru": "Деревины", "osm_id": 1805096247, "osm_type": "nodes" }, "geometry": { "type": "Point", "coordinates": [ 31.4645366, 52.1181848 ] } },
{ "type": "Feature", "properties": { "name": "Лынтупы", "name:en": null, "railway": "station", "ele": null, "operator:type": null, "layer": null, "addr:full": null, "addr:city": null, "source": null, "name:be": "Лынтупы", "name:ru": "Лынтупы", "osm_id": 9644444110, "osm_type": "nodes" }, "geometry": { "type": "Point", "coordinates": [ 26.3107486, 55.0413478 ] } },
{ "type": "Feature", "properties": { "name": "Кавальская Слабада", "name:en": "Kavaĺskaja Slabada", "railway": "station", "ele": null, "operator:type": null, "layer": "-5", "addr:full": null, "addr:city": null, "source": null, "name:be": "Кавальская Слабада", "name:ru": "Ковальская Слобода", "osm_id": 11105993066, "osm_type": "nodes" }, "geometry": { "type": "Point", "coordinates": [ 27.5496374, 53.8770344 ] } },
{ "type": "Feature", "properties": { "name": "Бярэзіна", "name:en": null, "railway": "station", "ele": null, "operator:type": null, "layer": null, "addr:full": null, "addr:city": null, "source": null, "name:be": "Бярэзіна", "name:ru": "Березина", "osm_id": 11027702870, "osm_type": "nodes" }, "geometry": { "type": "Point", "coordinates": [ 29.2491943, 53.1309853 ] } },
{ "type": "Feature", "properties": { "name": "Брузгі", "name:en": null, "railway": "station", "ele": null, "operator:type": null, "layer": null, "addr:full": null, "addr:city": null, "source": null, "name:be": "Брузгі", "name:ru": "Брузги", "osm_id": 11005657572, "osm_type": "nodes" }, "geometry": { "type": "Point", "coordinates": [ 23.6666516, 53.5555298 ] } },
{ "type": "Feature", "properties": { "name": "Барысаў", "name:en": null, "railway": "station", "ele": null, "operator:type": null, "layer": null, "addr:full": null, "addr:city": null, "source": null, "name:be": "Барысаў", "name:ru": "Борисов", "osm_id": 11030311018, "osm_type": "nodes" }, "geometry": { "type": "Point", "coordinates": [ 28.5310773, 54.2204535 ] } },
{ "type": "Feature", "properties": { "name": "Мінск-Паўднёвы", "name:en": null, "railway": "station", "ele": null, "operator:type": null, "layer": null, "addr:full": null, "addr:city": null, "source": null, "name:be": "Мінск-Паўднёвы", "name:ru": "Минск-Южный", "osm_id": 11028173076, "osm_type": "nodes" }, "geometry": { "type": "Point", "coordinates": [ 27.5605881, 53.8654222 ] } },
{ "type": "Feature", "properties": { "name": "Скідзель", "name:en": null, "railway": "station", "ele": null, "operator:type": null, "layer": null, "addr:full": null, "addr:city": null, "source": null, "name:be": "Скідзель", "name:ru": "Скидель", "osm_id": 11676841488, "osm_type": "nodes" }, "geometry": { "type": "Point", "coordinates": [ 24.2240073, 53.5720512 ] } },
{ "type": "Feature", "properties": { "name": "Гродна", "name:en": null, "railway": "station", "ele": null, "operator:type": null, "layer": null, "addr:full": null, "addr:city": null, "source": null, "name:be": "Гродна", "name:ru": "Гродно", "osm_id": 11005642028, "osm_type": "nodes" }, "geometry": { "type": "Point", "coordinates": [ 23.8490882, 53.6862323 ] } },
{ "type": "Feature", "properties": { "name": null, "name:en": null, "railway": "station", "ele": null, "operator:type": null, "layer": null, "addr:full": null, "addr:city": null, "source": null, "name:be": null, "name:ru": null, "osm_id": 6333070571, "osm_type": "nodes" }, "geometry": { "type": "Point", "coordinates": [ 30.2632089, 53.8638865 ] } },
{ "type": "Feature", "properties": { "name": "Плошча Францішка Багушэвіча", "name:en": "Plošča Franciška Bahuševiča", "railway": "station", "ele": null, "operator:type": null, "layer": "-5", "addr:full": null, "addr:city": null, "source": null, "name:be": "Плошча Францішка Багушэвіча", "name:ru": "Площадь Франтишка Богушевича", "osm_id": 11105993077, "osm_type": "nodes" }, "geometry": { "type": "Point", "coordinates": [ 27.5379149, 53.8963922 ] } },
{ "type": "Feature", "properties": { "name": "Камунары", "name:en": null, "railway": "station", "ele": null, "operator:type": null, "layer": null, "addr:full": null, "addr:city": null, "source": null, "name:be": "Камунары", "name:ru": "Коммунары", "osm_id": 306068422, "osm_type": "nodes" }, "geometry": { "type": "Point", "coordinates": [ 32.0596063, 53.3781274 ] } },
{ "type": "Feature", "properties": { "name": "Залессе", "name:en": null, "railway": "station", "ele": null, "operator:type": null, "layer": null, "addr:full": null, "addr:city": null, "source": null, "name:be": "Залессе", "name:ru": "Залесье", "osm_id": 306068550, "osm_type": "nodes" }, "geometry": { "type": "Point", "coordinates": [ 26.5410659, 54.4212686 ] } },
{ "type": "Feature", "properties": { "name": "Быхаў", "name:en": null, "railway": "station", "ele": null, "operator:type": null, "layer": null, "addr:full": null, "addr:city": null, "source": null, "name:be": "Быхаў", "name:ru": "Быхов", "osm_id": 11453777370, "osm_type": "nodes" }, "geometry": { "type": "Point", "coordinates": [ 30.230699, 53.5152284 ] } },
{ "type": "Feature", "properties": { "name": "Смаргонь", "name:en": "Smarhon", "railway": "station", "ele": null, "operator:type": null, "layer": null, "addr:full": null, "addr:city": null, "source": null, "name:be": "Смаргонь", "name:ru": "Сморгонь", "osm_id": 1390823768, "osm_type": "nodes" }, "geometry": { "type": "Point", "coordinates": [ 26.3714649, 54.4753456 ] } },
{ "type": "Feature", "properties": { "name": "Магілёў 1", "name:en": null, "railway": "station", "ele": null, "operator:type": null, "layer": null, "addr:full": null, "addr:city": null, "source": null, "name:be": "Магілёў 1", "name:ru": "Могилёв-1", "osm_id": 11453777381, "osm_type": "nodes" }, "geometry": { "type": "Point", "coordinates": [ 30.3378666, 53.9262159 ] } },
{ "type": "Feature", "properties": { "name": "Шклоў", "name:en": null, "railway": "station", "ele": null, "operator:type": null, "layer": null, "addr:full": null, "addr:city": null, "source": null, "name:be": "Шклоў", "name:ru": "Шклов", "osm_id": 11453777386, "osm_type": "nodes" }, "geometry": { "type": "Point", "coordinates": [ 30.2774905, 54.2190171 ] } },
{ "type": "Feature", "properties": { "name": "Смалявічы", "name:en": null, "railway": "station", "ele": null, "operator:type": null, "layer": null, "addr:full": null, "addr:city": null, "source": null, "name:be": "Смалявічы", "name:ru": "Смолевичи", "osm_id": 11030151907, "osm_type": "nodes" }, "geometry": { "type": "Point", "coordinates": [ 28.056894, 54.0195515 ] } },
{ "type": "Feature", "properties": { "name": "Віцебск", "name:en": "Vitebsk", "railway": "station", "ele": null, "operator:type": null, "layer": null, "addr:full": null, "addr:city": null, "source": null, "name:be": "Віцебск", "name:ru": "Витебск", "osm_id": 10637312516, "osm_type": "nodes" }, "geometry": { "type": "Point", "coordinates": [ 30.1850569, 55.194987 ] } },
{ "type": "Feature", "properties": { "name": "Красное", "name:en": null, "railway": "station", "ele": null, "operator:type": null, "layer": null, "addr:full": null, "addr:city": null, "source": null, "name:be": "Краснае", "name:ru": "Красное", "osm_id": 272715670, "osm_type": "nodes" }, "geometry": { "type": "Point", "coordinates": [ 31.0373439, 54.6826624 ] } },
{ "type": "Feature", "properties": { "name": "Жабінка", "name:en": null, "railway": "station", "ele": null, "operator:type": null, "layer": null, "addr:full": null, "addr:city": null, "source": null, "name:be": "Жабінка", "name:ru": "Жабинка", "osm_id": 5843905344, "osm_type": "nodes" }, "geometry": { "type": "Point", "coordinates": [ 24.0170938, 52.2010852 ] } },
{ "type": "Feature", "properties": { "name": "Клецк", "name:en": null, "railway": "station", "ele": null, "operator:type": null, "layer": null, "addr:full": null, "addr:city": null, "source": null, "name:be": "Клецк", "name:ru": "Клецк", "osm_id": 306065832, "osm_type": "nodes" }, "geometry": { "type": "Point", "coordinates": [ 26.6598626, 53.0766461 ] } },
{ "type": "Feature", "properties": { "name": "Лунінец", "name:en": null, "railway": "station", "ele": null, "operator:type": null, "layer": null, "addr:full": null, "addr:city": null, "source": null, "name:be": "Лунінец", "name:ru": "Лунинец", "osm_id": 12484334093, "osm_type": "nodes" }, "geometry": { "type": "Point", "coordinates": [ 26.8069491, 52.2437953 ] } },
{ "type": "Feature", "properties": { "name": "Сінкевічы", "name:en": null, "railway": "station", "ele": null, "operator:type": null, "layer": null, "addr:full": null, "addr:city": null, "source": null, "name:be": "Сінкевічы", "name:ru": "Сенкевичи", "osm_id": 306069806, "osm_type": "nodes" }, "geometry": { "type": "Point", "coordinates": [ 27.2587193, 52.2088797 ] } },
{ "type": "Feature", "properties": { "name": "Інстытут Культуры", "name:en": null, "railway": "station", "ele": null, "operator:type": null, "layer": null, "addr:full": null, "addr:city": null, "source": null, "name:be": "Інстытут Культуры", "name:ru": "Институт Культуры", "osm_id": 12532814162, "osm_type": "nodes" }, "geometry": { "type": "Point", "coordinates": [ 27.540732, 53.8858665 ] } },
{ "type": "Feature", "properties": { "name": "Малінаўка", "name:en": "Malinaŭka", "railway": "station", "ele": null, "operator:type": null, "layer": "-5", "addr:full": null, "addr:city": null, "source": null, "name:be": "Малінаўка", "name:ru": "Малиновка", "osm_id": 12532814164, "osm_type": "nodes" }, "geometry": { "type": "Point", "coordinates": [ 27.4748613, 53.8499141 ] } },
{ "type": "Feature", "properties": { "name": "Пятроўшчына", "name:en": "Piatroŭščyna", "railway": "station", "ele": null, "operator:type": null, "layer": "-5", "addr:full": null, "addr:city": null, "source": null, "name:be": "Пятроўшчына", "name:ru": "Петровщина", "osm_id": 12532814166, "osm_type": "nodes" }, "geometry": { "type": "Point", "coordinates": [ 27.4861839, 53.8647388 ] } },
{ "type": "Feature", "properties": { "name": "Міхалова", "name:en": "Michalova", "railway": "station", "ele": null, "operator:type": null, "layer": null, "addr:full": null, "addr:city": null, "source": null, "name:be": "Міхалова", "name:ru": "Михалово", "osm_id": 12532814168, "osm_type": "nodes" }, "geometry": { "type": "Point", "coordinates": [ 27.4971391, 53.8768793 ] } },
{ "type": "Feature", "properties": { "name": "Грушаўка", "name:en": "Hrušaŭka", "railway": "station", "ele": null, "operator:type": null, "layer": null, "addr:full": null, "addr:city": null, "source": null, "name:be": "Грушаўка", "name:ru": "Грушевка", "osm_id": 12532814171, "osm_type": "nodes" }, "geometry": { "type": "Point", "coordinates": [ 27.5148888, 53.8867145 ] } },
{ "type": "Feature", "properties": { "name": "Плошча Леніна", "name:en": "Plošča Lienina", "railway": "station", "ele": null, "operator:type": null, "layer": null, "addr:full": null, "addr:city": null, "source": null, "name:be": "Плошча Леніна", "name:ru": "Площадь Ленина", "osm_id": 12532814172, "osm_type": "nodes" }, "geometry": { "type": "Point", "coordinates": [ 27.5478131, 53.8927643 ] } },
{ "type": "Feature", "properties": { "name": "Кастрычніцкая", "name:en": "Kastryčnickaja", "railway": "station", "ele": null, "operator:type": null, "layer": null, "addr:full": null, "addr:city": null, "source": null, "name:be": "Кастрычніцкая", "name:ru": "Октябрьская", "osm_id": 12532814173, "osm_type": "nodes" }, "geometry": { "type": "Point", "coordinates": [ 27.5621727, 53.9020905 ] } },
{ "type": "Feature", "properties": { "name": "Плошча Перамогі", "name:en": null, "railway": "station", "ele": null, "operator:type": null, "layer": null, "addr:full": null, "addr:city": null, "source": null, "name:be": "Плошча Перамогі", "name:ru": "Площадь Победы", "osm_id": 12532814176, "osm_type": "nodes" }, "geometry": { "type": "Point", "coordinates": [ 27.5762446, 53.9094694 ] } },
{ "type": "Feature", "properties": { "name": "Плошча Якуба Коласа", "name:en": null, "railway": "station", "ele": null, "operator:type": null, "layer": null, "addr:full": null, "addr:city": null, "source": null, "name:be": "Плошча Якуба Коласа", "name:ru": "Площадь Якуба Коласа", "osm_id": 12532814177, "osm_type": "nodes" }, "geometry": { "type": "Point", "coordinates": [ 27.5840538, 53.9158336 ] } },
{ "type": "Feature", "properties": { "name": "Акадэмія навук", "name:en": "Akademija navuk", "railway": "station", "ele": null, "operator:type": null, "layer": null, "addr:full": null, "addr:city": null, "source": null, "name:be": "Акадэмія навук", "name:ru": "Академия наук", "osm_id": 12532814178, "osm_type": "nodes" }, "geometry": { "type": "Point", "coordinates": [ 27.5993438, 53.9217548 ] } },
{ "type": "Feature", "properties": { "name": "Парк Чалюскінцаў", "name:en": "Park Čaliuskincaŭ", "railway": "station", "ele": null, "operator:type": null, "layer": null, "addr:full": null, "addr:city": null, "source": null, "name:be": "Парк Чалюскінцаў", "name:ru": "Парк Челюскинцев", "osm_id": 12532814181, "osm_type": "nodes" }, "geometry": { "type": "Point", "coordinates": [ 27.6137161, 53.9242151 ] } },
{ "type": "Feature", "properties": { "name": "Маскоўская", "name:en": null, "railway": "station", "ele": null, "operator:type": null, "layer": null, "addr:full": null, "addr:city": null, "source": null, "name:be": "Маскоўская", "name:ru": "Московская", "osm_id": 12532814182, "osm_type": "nodes" }, "geometry": { "type": "Point", "coordinates": [ 27.6281371, 53.9280537 ] } },
{ "type": "Feature", "properties": { "name": "Усход", "name:en": null, "railway": "station", "ele": null, "operator:type": null, "layer": null, "addr:full": null, "addr:city": null, "source": null, "name:be": "Усход", "name:ru": "Восток", "osm_id": 12532814184, "osm_type": "nodes" }, "geometry": { "type": "Point", "coordinates": [ 27.6513471, 53.9344505 ] } },
{ "type": "Feature", "properties": { "name": "Барысаўскі тракт", "name:en": "Barysaŭski trakt", "railway": "station", "ele": null, "operator:type": null, "layer": null, "addr:full": null, "addr:city": null, "source": null, "name:be": "Барысаўскі тракт", "name:ru": "Борисовский тракт", "osm_id": 12532814186, "osm_type": "nodes" }, "geometry": { "type": "Point", "coordinates": [ 27.6666432, 53.9387279 ] } },
{ "type": "Feature", "properties": { "name": "Уручча", "name:en": null, "railway": "station", "ele": null, "operator:type": null, "layer": null, "addr:full": null, "addr:city": null, "source": null, "name:be": "Уручча", "name:ru": "Уручье", "osm_id": 12532814188, "osm_type": "nodes" }, "geometry": { "type": "Point", "coordinates": [ 27.6879112, 53.9453816 ] } }
]
}
